LDcm6twPEJA,The Problem With Our Phones,The School of Life,27,the school of life|school|life|education|relationships|mood|alain de botton|sermon|philosophy|lecture|wisdom|London|talk|secular|self|improvement|curriculum|big questions|love|wellness|mindfullness|psychology|Alain|de|botton|of|how|to|hack|phones|mobile|cell|technology|addiction|modern|depression|problem|issue|PL-SELF|phone|science|iphone|media|cell phone|school of life|apple presentation|iphone problem|problem with iphone|téléphone|teléfono|Telefon|电话|電話|फ़ोन|Телефон,162818,9531,416,1079,https://i.ytimg.com/vi/LDcm6twPEJA/default.jpg,13.09
8QgMh02JvS8,The $80 Smartphone Challenge,Austin Evans,28,smartphone|challenge|gadgets|android|budget|cheap|tech|cool gadgets|unboxing|austin evans,387873,12099,458,1771,https://i.ytimg.com/vi/8QgMh02JvS8/default.jpg,13.09
8fH_PAi6Yf4,RIHANNA FENTY BEAUTY My First Impressions Full Face + Review For Dark Skin | MsDebDeb,Ms Deb Deb,26,Fenty Beauty|Rihanna makeup|WOC|makeup|Sponge|foundation|Concealer|Lipgloss|Full Review|Highlighter|Trophy wife|make Up|2017|Fenty|Beauty,1106140,38670,1576,1470,https://i.ytimg.com/vi/8fH_PAi6Yf4/default.jpg,13.09
LDcm6twPEJA,The Problem With Our Phones,The School of Life,27,the school of life|school|life|education|relationships|mood|alain de botton|sermon|philosophy|lecture|wisdom|London|talk|secular|self|improvement|curriculum|big questions|love|wellness|mindfullness|psychology|Alain|de|botton|of|how|to|hack|phones|mobile|cell|technology|addiction|modern|depression|problem|issue|PL-SELF|phone|science|iphone|media|cell phone|school of life|apple presentation|iphone problem|problem with iphone|téléphone|teléfono|Telefon|电话|電話|फ़ोन|Телефон,205103,10947,471,1206,https://i.ytimg.com/vi/LDcm6twPEJA/default.jpg,14.09
8QgMh02JvS8,The $80 Smartphone Challenge,Austin Evans,28,smartphone|challenge|gadgets|android|budget|cheap|tech|cool gadgets|unboxing|austin evans,396083,12221,463,1772,https://i.ytimg.com/vi/8QgMh02JvS8/default.jpg,14.09
8fH_PAi6Yf4,RIHANNA FENTY BEAUTY My First Impressions Full Face + Review For Dark Skin | MsDebDeb,Ms Deb Deb,26,Fenty Beauty|Rihanna makeup|WOC|makeup|Sponge|foundation|Concealer|Lipgloss|Full Review|Highlighter|Trophy wife|make Up|2017|Fenty|Beauty,1139838,39393,1607,1519,https://i.ytimg.com/vi/8fH_PAi6Yf4/default.jpg,14.09
ugWImY8VMzI,Love @ First Swipe,Cub Studio,1,wedding|video|animation|marriage,16506,448,30,53,https://i.ytimg.com/vi/ugWImY8VMzI/default.jpg,18.09
c1QGynzVbs4,"Wendy Williams Responds To T.I.'s Instagram Rant, Dishes On Her Scandalous Bikini Pics | PeopleTV",PeopleTV,24,wendywilliams|wendy williams spills the tea|wendy williamsdrama|wendy williamsinterview|wendy williams2017|wendywilliamsshow|wendy williams t.i.|wendy williamsbikini|wendy williams black bikini|People now|daily|celebrity drama|drama|celebrity romance|romance|celebrity scandal|scandal|true story|People|people magazine|news|celebrities|rumors|interview|style|magazine|time|celebrity gossip|entertainment|gossip|celebrity|famous|Hollywood|celeb|celebrity (media genre),88402,616,242,397,https://i.ytimg.com/vi/c1QGynzVbs4/default.jpg,18.09
57-gdzXqkRc,Justin Theroux Weighs In on the Argument Over Jennifer Aniston’s Best Friend,TheEllenShow,24,Justin|Theroux|Justin Theroux|Jennifer aniston|Jennifer|aniston|reese witherspoon|celebrity interview|Ellen|degeneres|ellen degeneres|the ellen show|ellen fans|ellen tickets|ellentube|ellen audience,128415,1576,63,125,https://i.ytimg.com/vi/57-gdzXqkRc/default.jpg,19.09
83ZrTybo2t4,Dog Reunites With Best Friend | The Dodo,The Dodo,15,animal video|animals|the dodo|Rescue|Animal Rescue|animal reunions|dog reunites|dog reunion|dog reunites with best friend|dog best friends|best friends|dogs|dog runion video|happy dog|good dog|dog friends|friends|best friend reunion|best friend videos|dog videos|funny dog videos|excited dog|pet reunions|best friends reunite,104645,4101,80,279,https://i.ytimg.com/vi/83ZrTybo2t4/default.jpg,19.09
ugWImY8VMzI,Love @ First Swipe,Cub Studio,1,wedding|video|animation|marriage,44193,2668,80,178,https://i.ytimg.com/vi/ugWImY8VMzI/default.jpg,19.09
c1QGynzVbs4,"Wendy Williams Responds To T.I.'s Instagram Rant, Dishes On Her Scandalous Bikini Pics | PeopleTV",PeopleTV,24,wendywilliams|wendy williams spills the tea|wendy williamsdrama|wendy williamsinterview|wendy williams2017|wendywilliamsshow|wendy williams t.i.|wendy williamsbikini|wendy williams black bikini|People now|daily|celebrity drama|drama|celebrity romance|romance|celebrity scandal|scandal|true story|People|people magazine|news|celebrities|rumors|interview|style|magazine|time|celebrity gossip|entertainment|gossip|celebrity|famous|Hollywood|celeb|celebrity (media genre),134239,846,309,569,https://i.ytimg.com/vi/c1QGynzVbs4/default.jpg,19.09
VGBZ2YfVx1Y,Giving Birth On A Mountain Top,Dolan Twins,23,Dolan Twins|giving birth|birth simulator|grayson dolan|ethan dolan,864289,156831,738,14834,https://i.ytimg.com/vi/VGBZ2YfVx1Y/default.jpg,20.09
xmhRIEqbKIY,Lions vs. Giants | NFL Week 2 Game Highlights,NFL,17,NFL|Football|offense|defense|afc|nfc|American Football|highlight|highlights|game|games|sport|sports|action|play|plays|season|2017|rookie|rookies|recap|run|sprint|catch|huge|amazing|win|lose|touchdown|td|week 2|wk 2|detroit|lions|new york|NY|giants|manning|stafford|beckham|agnew|odell|int|field goal|prater|sp:dt=2017-09-18T20:30:00-04:00|sp:vl=en-US|sp:st=football|sp:li=nfl|sp:ti:home=NYG|sp:ti:away=Det|sp:ty=high,616086,5988,364,2626,https://i.ytimg.com/vi/xmhRIEqbKIY/default.jpg,20.09
uqoFsqOJYCg,Blind People Describe Racism,WatchCut Video,24,blind people|blind|people|racism|social justice|describe|information|racist|institutional racism|privelege|politics|bernie sanders|donald trump,363089,9525,727,2521,https://i.ytimg.com/vi/uqoFsqOJYCg/default.jpg,20.09
83ZrTybo2t4,Dog Reunites With Best Friend | The Dodo,The Dodo,15,animal video|animals|the dodo|Rescue|Animal Rescue|animal reunions|dog reunites|dog reunion|dog reunites with best friend|dog best friends|best friends|dogs|dog runion video|happy dog|good dog|dog friends|friends|best friend reunion|best friend videos|dog videos|funny dog videos|excited dog|pet reunions|best friends reunite,167923,5022,103,314,https://i.ytimg.com/vi/83ZrTybo2t4/default.jpg,20.09
ugWImY8VMzI,Love @ First Swipe,Cub Studio,1,wedding|video|animation|marriage,59662,3624,99,207,https://i.ytimg.com/vi/ugWImY8VMzI/default.jpg,20.09
c1QGynzVbs4,"Wendy Williams Responds To T.I.'s Instagram Rant, Dishes On Her Scandalous Bikini Pics | PeopleTV",PeopleTV,24,wendywilliams|wendy williams spills the tea|wendy williamsdrama|wendy williamsinterview|wendy williams2017|wendywilliamsshow|wendy williams t.i.|wendy williamsbikini|wendy williams black bikini|People now|daily|celebrity drama|drama|celebrity romance|romance|celebrity scandal|scandal|true story|People|people magazine|news|celebrities|rumors|interview|style|magazine|time|celebrity gossip|entertainment|gossip|celebrity|famous|Hollywood|celeb|celebrity (media genre),165899,999,338,573,https://i.ytimg.com/vi/c1QGynzVbs4/default.jpg,20.09
qR1EM-RIZNk,JUMANJI: WELCOME TO THE JUNGLE (OFFICIAL TRAILER),The Rock,24,The Rock|The Rock YouTube|YouTube The Rock|Dwayne Johnson YouTube|YouTube Dwayne Johnson|The Rock Johnson|Dwayne The Rock Johnson|jumanji|jumanji welcome to the jungle|jumanji trailer|2017 jumanji|jumanji 2017|jumanji movie|jumanji trailer 2017|welcome to the jungle the rock|the rock jumanji|jumanji the rock|new jumanji|jumanji official trailer|official trailer|trailer jumanji|new jumanji movie|new jumanji movie trailer|official trailer jumanji,301110,13514,862,1544,https://i.ytimg.com/vi/qR1EM-RIZNk/default.jpg,21.09
1kVLpFilePw,Lip Sync Conversation with Demi Lovato,The Tonight Show Starring Jimmy Fallon,23,The Tonight Show|Jimmy Fallon|Lip Sync Conversation|Demi Lovato|NBC|NBC TV|Television|Funny|Talk Show|comedic|humor|snl|Fallon Stand-up|Fallon monologue|tonight|show|jokes|funny video|interview|variety|comedy sketches|talent|celebrities|video|clip|highlight|Adele|Selena Gomez|Bruno Mars|Taylor Swift|Look What You Made Me Do|Sorry Not Sorry|dj khaled|despacito,734401,61972,423,1983,https://i.ytimg.com/vi/1kVLpFilePw/default.jpg,21.09
VGBZ2YfVx1Y,Giving Birth On A Mountain Top,Dolan Twins,23,Dolan Twins|giving birth|birth simulator|grayson dolan|ethan dolan,1427612,206227,1453,17694,https://i.ytimg.com/vi/VGBZ2YfVx1Y/default.jpg,21.09
ZW4jOlyj-sM,Japan vs USA | How different are fast food menus?,Rachel and Jun,22,Japan|Japanese|yt:cc=on|fast|food|comparison|usa|america|restaurants|diet|health|different|diets|menus|american|ジュン|レイチェル|アメリカ|日本|比較|マクドナルド|ファスト|フード|英語|英会話|違い|サイズ,264715,14314,434,2051,https://i.ytimg.com/vi/ZW4jOlyj-sM/default.jpg,21.09
ZVPTxFZTQis,KB - Hometeam ft. Lecrae,Reach Records,10,116|hometeam|lecrae|kb|reach records|hip hop|chh|unashamed|not ashamed|hometeam tour,40029,2854,31,566,https://i.ytimg.com/vi/ZVPTxFZTQis/default.jpg,21.09
xmhRIEqbKIY,Lions vs. Giants | NFL Week 2 Game Highlights,NFL,17,NFL|Football|offense|defense|afc|nfc|American Football|highlight|highlights|game|games|sport|sports|action|play|plays|season|2017|rookie|rookies|recap|run|sprint|catch|huge|amazing|win|lose|touchdown|td|week 2|wk 2|detroit|lions|new york|NY|giants|manning|stafford|beckham|agnew|odell|int|field goal|prater|sp:dt=2017-09-18T20:30:00-04:00|sp:vl=en-US|sp:st=football|sp:li=nfl|sp:ti:home=NYG|sp:ti:away=Det|sp:ty=high,733959,6653,397,2258,https://i.ytimg.com/vi/xmhRIEqbKIY/default.jpg,21.09
uqoFsqOJYCg,Blind People Describe Racism,WatchCut Video,24,blind people|blind|people|racism|social justice|describe|information|racist|institutional racism|privelege|politics|bernie sanders|donald trump,469483,11535,928,2635,https://i.ytimg.com/vi/uqoFsqOJYCg/default.jpg,21.09
83ZrTybo2t4,Dog Reunites With Best Friend | The Dodo,The Dodo,15,animal video|animals|the dodo|Rescue|Animal Rescue|animal reunions|dog reunites|dog reunion|dog reunites with best friend|dog best friends|best friends|dogs|dog runion video|happy dog|good dog|dog friends|friends|best friend reunion|best friend videos|dog videos|funny dog videos|excited dog|pet reunions|best friends reunite,200441,5469,109,438,https://i.ytimg.com/vi/83ZrTybo2t4/default.jpg,21.09
ugWImY8VMzI,Love @ First Swipe,Cub Studio,1,wedding|video|animation|marriage,63580,3815,105,218,https://i.ytimg.com/vi/ugWImY8VMzI/default.jpg,21.09
qR1EM-RIZNk,JUMANJI: WELCOME TO THE JUNGLE (OFFICIAL TRAILER),The Rock,24,The Rock|The Rock YouTube|YouTube The Rock|Dwayne Johnson YouTube|YouTube Dwayne Johnson|The Rock Johnson|Dwayne The Rock Johnson|jumanji|jumanji welcome to the jungle|jumanji trailer|2017 jumanji|jumanji 2017|jumanji movie|jumanji trailer 2017|welcome to the jungle the rock|the rock jumanji|jumanji the rock|new jumanji|jumanji official trailer|official trailer|trailer jumanji|new jumanji movie|new jumanji movie trailer|official trailer jumanji,648183,18895,1611,2395,https://i.ytimg.com/vi/qR1EM-RIZNk/default.jpg,22.09
wQD1JvJZXdI,Samsung Galaxy Note 8 Review: A $1000 Android!,Marques Brownlee,28,note 8|galaxy note 8|note 8 review|galaxy note 8 review|Samsung Note|Samsung Note 8|stylus|s-pen|unboxing|note 8 unboxing|Note 8 vs|Note 8 camera|Note 8 vs iPhone|Galaxy Note 8 vs|Galaxy Note|samsung galaxy note|samsung s8|galaxy s8|samsug note 8|samsung 8|MKBHD,1300161,47953,1193,8487,https://i.ytimg.com/vi/wQD1JvJZXdI/default.jpg,22.09
ZVPTxFZTQis,KB - Hometeam ft. Lecrae,Reach Records,10,116|hometeam|lecrae|kb|reach records|hip hop|chh|unashamed|not ashamed|hometeam tour,74510,3605,57,639,https://i.ytimg.com/vi/ZVPTxFZTQis/default.jpg,22.09
VGBZ2YfVx1Y,Giving Birth On A Mountain Top,Dolan Twins,23,Dolan Twins|giving birth|birth simulator|grayson dolan|ethan dolan,1535591,214538,1497,18212,https://i.ytimg.com/vi/VGBZ2YfVx1Y/default.jpg,22.09
ZW4jOlyj-sM,Japan vs USA | How different are fast food menus?,Rachel and Jun,22,Japan|Japanese|yt:cc=on|fast|food|comparison|usa|america|restaurants|diet|health|different|diets|menus|american|ジュン|レイチェル|アメリカ|日本|比較|マクドナルド|ファスト|フード|英語|英会話|違い|サイズ,300463,15431,468,2191,https://i.ytimg.com/vi/ZW4jOlyj-sM/default.jpg,22.09
xmhRIEqbKIY,Lions vs. Giants | NFL Week 2 Game Highlights,NFL,17,NFL|Football|offense|defense|afc|nfc|American Football|highlight|highlights|game|games|sport|sports|action|play|plays|season|2017|rookie|rookies|recap|run|sprint|catch|huge|amazing|win|lose|touchdown|td|week 2|wk 2|detroit|lions|new york|NY|giants|manning|stafford|beckham|agnew|odell|int|field goal|prater|sp:dt=2017-09-18T20:30:00-04:00|sp:vl=en-US|sp:st=football|sp:li=nfl|sp:ti:home=NYG|sp:ti:away=Det|sp:ty=high,762557,6758,408,2298,https://i.ytimg.com/vi/xmhRIEqbKIY/default.jpg,22.09
uqoFsqOJYCg,Blind People Describe Racism,WatchCut Video,24,blind people|blind|people|racism|social justice|describe|information|racist|institutional racism|privelege|politics|bernie sanders|donald trump,508123,12467,987,2849,https://i.ytimg.com/vi/uqoFsqOJYCg/default.jpg,22.09
83ZrTybo2t4,Dog Reunites With Best Friend | The Dodo,The Dodo,15,animal video|animals|the dodo|Rescue|Animal Rescue|animal reunions|dog reunites|dog reunion|dog reunites with best friend|dog best friends|best friends|dogs|dog runion video|happy dog|good dog|dog friends|friends|best friend reunion|best friend videos|dog videos|funny dog videos|excited dog|pet reunions|best friends reunite|isle of dogs,246636,5949,121,395,https://i.ytimg.com/vi/83ZrTybo2t4/default.jpg,22.09
ugWImY8VMzI,Love @ First Swipe,Cub Studio,1,wedding|video|animation|marriage,64800,3872,106,236,https://i.ytimg.com/vi/ugWImY8VMzI/default.jpg,22.09
dt__kig8PVU,ISLE OF DOGS | Official Trailer | FOX Searchlight,FoxSearchlight,1,Isle of Dogs|trailer|wes anderson|wes anderson movie|fantastic mr. fox|stop motion movie|the grand budapest hotel|moonrise kingdom|Scarlett Johansson|Bryan Cranston|Liev Schreiber|Tilda Swinton|Edward Norton|Bill Murray|Greta Gerwig|Jeff Goldblum,3074228,60662,3615,5902,https://i.ytimg.com/vi/dt__kig8PVU/default.jpg,23.09
uwukx6DGmW8,How to Invest (and other money questions with The Financial Diet),vlogbrothers,22,finances|personal finance|stocks|taxes|america|united states|money|education|information|financial|the financial diet|401k|student loans,73903,3732,148,521,https://i.ytimg.com/vi/uwukx6DGmW8/default.jpg,23.09
IHi5jq2P_Zk,Maggie Rogers - Split Stones,MaggieRogersVEVO,10,Maggie|Rogers|Split|Stones|Capitol|Records|(US1A)|Alternative,30003,2390,30,221,https://i.ytimg.com/vi/IHi5jq2P_Zk/default.jpg,23.09
8bOuVjbcTgs,Why the Future Could Mean Delivery Straight Into Your Fridge,Walmart,27,[none],24130,42,67,50,https://i.ytimg.com/vi/8bOuVjbcTgs/default.jpg,23.09
wQD1JvJZXdI,Samsung Galaxy Note 8 Review: A $1000 Android!,Marques Brownlee,28,note 8|galaxy note 8|note 8 review|galaxy note 8 review|Samsung Note|Samsung Note 8|stylus|s-pen|unboxing|note 8 unboxing|Note 8 vs|Note 8 camera|Note 8 vs iPhone|Galaxy Note 8 vs|Galaxy Note|samsung galaxy note|samsung s8|galaxy s8|samsug note 8|samsung 8|MKBHD,1499399,52125,1319,7185,https://i.ytimg.com/vi/wQD1JvJZXdI/default.jpg,23.09
qR1EM-RIZNk,JUMANJI: WELCOME TO THE JUNGLE (OFFICIAL TRAILER),The Rock,24,The Rock|The Rock YouTube|YouTube The Rock|Dwayne Johnson YouTube|YouTube Dwayne Johnson|The Rock Johnson|Dwayne The Rock Johnson|jumanji|jumanji welcome to the jungle|jumanji trailer|2017 jumanji|jumanji 2017|jumanji movie|jumanji trailer 2017|welcome to the jungle the rock|the rock jumanji|jumanji the rock|new jumanji|jumanji official trailer|official trailer|trailer jumanji|new jumanji movie|new jumanji movie trailer|official trailer jumanji,948973,21611,1985,2332,https://i.ytimg.com/vi/qR1EM-RIZNk/default.jpg,23.09
ZVPTxFZTQis,KB - Hometeam ft. Lecrae,Reach Records,10,116|hometeam|lecrae|kb|reach records|hip hop|chh|unashamed|not ashamed|hometeam tour,91922,3959,66,681,https://i.ytimg.com/vi/ZVPTxFZTQis/default.jpg,23.09
ZW4jOlyj-sM,Japan vs USA | How different are fast food menus?,Rachel and Jun,22,Japan|Japanese|yt:cc=on|fast|food|comparison|usa|america|restaurants|diet|health|different|diets|menus|american|ジュン|レイチェル|アメリカ|日本|比較|マクドナルド|ファスト|フード|英語|英会話|違い|サイズ,331886,16525,500,1729,https://i.ytimg.com/vi/ZW4jOlyj-sM/default.jpg,23.09
VGBZ2YfVx1Y,Giving Birth On A Mountain Top,Dolan Twins,23,Dolan Twins|giving birth|birth simulator|grayson dolan|ethan dolan,1646787,223698,1532,14746,https://i.ytimg.com/vi/VGBZ2YfVx1Y/default.jpg,23.09
dt__kig8PVU,ISLE OF DOGS | Official Trailer | FOX Searchlight,FoxSearchlight,1,Isle of Dogs|trailer|wes anderson|wes anderson movie|fantastic mr. fox|stop motion movie|the grand budapest hotel|moonrise kingdom|Scarlett Johansson|Bryan Cranston|Liev Schreiber|Tilda Swinton|Edward Norton|Bill Murray|Greta Gerwig|Jeff Goldblum,3527918,67555,3993,6601,https://i.ytimg.com/vi/dt__kig8PVU/default.jpg,24.09
uwukx6DGmW8,How to Invest (and other money questions with The Financial Diet),vlogbrothers,22,finances|personal finance|stocks|taxes|america|united states|money|education|information|financial|the financial diet|401k|student loans,103986,4502,228,625,https://i.ytimg.com/vi/uwukx6DGmW8/default.jpg,24.09
vS_NlXmPB3I,BACK TO SCHOOL MAKEUP TUTORIAL IN 10 EASY STEPS,Glam&Gore,22,Back To School Makeup Tutorial In 10 Easy Steps|Back to school makeup|school makeup|easy school makeup|easy back to school makeup|gates foundation|goalkeepers|goalkeepers report|education|makeup tutorial|simple makeup tutorial|makeup tutorial in 10 steps|makeup ten easy steps|makeup 10 easy steps|simple makeup 10 steps|beginner makeup|mykie|glam & g|glam&g|glam and g,267037,22019,322,1466,https://i.ytimg.com/vi/vS_NlXmPB3I/default.jpg,24.09
8bOuVjbcTgs,Why the Future Could Mean Delivery Straight Into Your Fridge,Walmart,27,[none],33813,48,83,0,https://i.ytimg.com/vi/8bOuVjbcTgs/default.jpg,24.09
IHi5jq2P_Zk,Maggie Rogers - Split Stones,MaggieRogersVEVO,10,Maggie|Rogers|Split|Stones|Capitol|Records|(US1A)|Alternative,48242,2943,50,268,https://i.ytimg.com/vi/IHi5jq2P_Zk/default.jpg,24.09
wQD1JvJZXdI,Samsung Galaxy Note 8 Review: A $1000 Android!,Marques Brownlee,28,note 8|galaxy note 8|note 8 review|galaxy note 8 review|Samsung Note|Samsung Note 8|stylus|s-pen|unboxing|note 8 unboxing|Note 8 vs|Note 8 camera|Note 8 vs iPhone|Galaxy Note 8 vs|Galaxy Note|samsung galaxy note|samsung s8|galaxy s8|samsug note 8|samsung 8|MKBHD,1563942,53217,1351,7304,https://i.ytimg.com/vi/wQD1JvJZXdI/default.jpg,24.09
qR1EM-RIZNk,JUMANJI: WELCOME TO THE JUNGLE (OFFICIAL TRAILER),The Rock,24,The Rock|The Rock YouTube|YouTube The Rock|Dwayne Johnson YouTube|YouTube Dwayne Johnson|The Rock Johnson|Dwayne The Rock Johnson|jumanji|jumanji welcome to the jungle|jumanji trailer|2017 jumanji|jumanji 2017|jumanji movie|jumanji trailer 2017|welcome to the jungle the rock|the rock jumanji|jumanji the rock|new jumanji|jumanji official trailer|official trailer|trailer jumanji|new jumanji movie|new jumanji movie trailer|official trailer jumanji,1017251,21923,2009,2365,https://i.ytimg.com/vi/qR1EM-RIZNk/default.jpg,24.09
ZVPTxFZTQis,KB - Hometeam ft. Lecrae,Reach Records,10,116|hometeam|lecrae|kb|reach records|hip hop|chh|unashamed|not ashamed|hometeam tour,101750,4123,71,708,https://i.ytimg.com/vi/ZVPTxFZTQis/default.jpg,24.09
ZW4jOlyj-sM,Japan vs USA | How different are fast food menus?,Rachel and Jun,22,Japan|Japanese|yt:cc=on|fast|food|comparison|usa|america|restaurants|diet|health|different|diets|menus|american|ジュン|レイチェル|アメリカ|日本|比較|マクドナルド|ファスト|フード|英語|英会話|違い|サイズ,346809,17090,513,1781,https://i.ytimg.com/vi/ZW4jOlyj-sM/default.jpg,24.09
VGBZ2YfVx1Y,Giving Birth On A Mountain Top,Dolan Twins,23,Dolan Twins|giving birth|birth simulator|grayson dolan|ethan dolan,1718796,228754,1545,14973,https://i.ytimg.com/vi/VGBZ2YfVx1Y/default.jpg,24.09
dN9hA7J79VI,"Ravens, Jaguars players kneel during national anthem",CNN,25,nfl|national anthem|ravens|jaguar,199374,3014,6333,7779,https://i.ytimg.com/vi/dN9hA7J79VI/default.jpg,25.09
1Q-ZREGfxTI,10 New OREO Flavors!!! Taste Test Challenge-a-thon - Man Vs Youtube,Rob Czar,24,man vs youtube|man vs pin|rob czar|oreo|oreo cookie|oreo challenge|threadbanger|corinne leigh|pizza oreos|philly cheesesteak oreos|oreo cookie challenge|tasting weird oreo flavors,515036,26876,1150,3098,https://i.ytimg.com/vi/1Q-ZREGfxTI/default.jpg,25.09
RtEvTmhVeQQ,G10 - Highest Note Ever Hit In The World (Georgia Brown),Pop Blast,10,high note challenge|highest note|highest note ever sung|ariana grande|mariah carey|g10|vocal battle|georgia brown|singers|high notes|singers hitting high notes|whistle register|whistle notes|singers hitting whistle notes|justin bieber|beyonce|shawn mendes|nicki minaj|one direction|zayn|highest note ever|falsetto|disney|singers real voice|celebrities|impressions|then and now|songs|best vocals|bad singers|autotune|f5,146848,1640,184,282,https://i.ytimg.com/vi/RtEvTmhVeQQ/default.jpg,25.09
dt__kig8PVU,ISLE OF DOGS | Official Trailer | FOX Searchlight,FoxSearchlight,1,Isle of Dogs|trailer|wes anderson|wes anderson movie|fantastic mr. fox|stop motion movie|the grand budapest hotel|moonrise kingdom|Scarlett Johansson|Bryan Cranston|Liev Schreiber|Tilda Swinton|Edward Norton|Bill Murray|Greta Gerwig|Jeff Goldblum,3905695,73524,4295,5687,https://i.ytimg.com/vi/dt__kig8PVU/default.jpg,25.09
uwukx6DGmW8,How to Invest (and other money questions with The Financial Diet),vlogbrothers,22,finances|personal finance|stocks|taxes|america|united states|money|education|information|financial|the financial diet|401k|student loans,117927,4890,256,673,https://i.ytimg.com/vi/uwukx6DGmW8/default.jpg,25.09
vS_NlXmPB3I,BACK TO SCHOOL MAKEUP TUTORIAL IN 10 EASY STEPS,Glam&Gore,22,Back To School Makeup Tutorial In 10 Easy Steps|Back to school makeup|school makeup|easy school makeup|easy back to school makeup|gates foundation|goalkeepers|goalkeepers report|education|makeup tutorial|simple makeup tutorial|makeup tutorial in 10 steps|makeup ten easy steps|makeup 10 easy steps|simple makeup 10 steps|beginner makeup|mykie|glam & g|glam&g|glam and g,291646,23512,347,1504,https://i.ytimg.com/vi/vS_NlXmPB3I/default.jpg,25.09
8bOuVjbcTgs,Why the Future Could Mean Delivery Straight Into Your Fridge,Walmart,27,[none],40006,54,94,0,https://i.ytimg.com/vi/8bOuVjbcTgs/default.jpg,25.09
IHi5jq2P_Zk,Maggie Rogers - Split Stones,MaggieRogersVEVO,10,Maggie|Rogers|Split|Stones|Capitol|Records|(US1A)|Alternative,67057,3424,75,248,https://i.ytimg.com/vi/IHi5jq2P_Zk/default.jpg,25.09
wQD1JvJZXdI,Samsung Galaxy Note 8 Review: A $1000 Android!,Marques Brownlee,28,note 8|galaxy note 8|note 8 review|galaxy note 8 review|Samsung Note|Samsung Note 8|stylus|s-pen|unboxing|note 8 unboxing|Note 8 vs|Note 8 camera|Note 8 vs iPhone|Galaxy Note 8 vs|Galaxy Note|samsung galaxy note|samsung s8|galaxy s8|samsug note 8|samsung 8|MKBHD,1628885,54308,1390,7325,https://i.ytimg.com/vi/wQD1JvJZXdI/default.jpg,25.09
qR1EM-RIZNk,JUMANJI: WELCOME TO THE JUNGLE (OFFICIAL TRAILER),The Rock,24,The Rock|The Rock YouTube|YouTube The Rock|Dwayne Johnson YouTube|YouTube Dwayne Johnson|The Rock Johnson|Dwayne The Rock Johnson|jumanji|jumanji welcome to the jungle|jumanji trailer|2017 jumanji|jumanji 2017|jumanji movie|jumanji trailer 2017|welcome to the jungle the rock|the rock jumanji|jumanji the rock|new jumanji|jumanji official trailer|official trailer|trailer jumanji|new jumanji movie|new jumanji movie trailer|official trailer jumanji,1122955,22450,2065,2451,https://i.ytimg.com/vi/qR1EM-RIZNk/default.jpg,25.09
ZVPTxFZTQis,KB - Hometeam ft. Lecrae,Reach Records,10,116|hometeam|lecrae|kb|reach records|hip hop|chh|unashamed|not ashamed|hometeam tour,110004,4253,76,564,https://i.ytimg.com/vi/ZVPTxFZTQis/default.jpg,25.09
dN9hA7J79VI,"Ravens, Jaguars players kneel during national anthem",CNN,25,nfl|national anthem|ravens|jaguar,422104,4999,12561,14679,https://i.ytimg.com/vi/dN9hA7J79VI/default.jpg,26.09
1Q-ZREGfxTI,10 New OREO Flavors!!! Taste Test Challenge-a-thon - Man Vs Youtube,Rob Czar,24,man vs youtube|man vs pin|rob czar|oreo|oreo cookie|oreo challenge|threadbanger|corinne leigh|pizza oreos|philly cheesesteak oreos|oreo cookie challenge|tasting weird oreo flavors,671328,30472,1691,2983,https://i.ytimg.com/vi/1Q-ZREGfxTI/default.jpg,26.09
RtEvTmhVeQQ,G10 - Highest Note Ever Hit In The World (Georgia Brown),Pop Blast,10,high note challenge|highest note|highest note ever sung|ariana grande|mariah carey|g10|vocal battle|georgia brown|singers|high notes|singers hitting high notes|whistle register|whistle notes|singers hitting whistle notes|justin bieber|beyonce|shawn mendes|nicki minaj|one direction|zayn|highest note ever|falsetto|disney|singers real voice|celebrities|impressions|then and now|songs|best vocals|bad singers|autotune|f5,266246,3409,350,715,https://i.ytimg.com/vi/RtEvTmhVeQQ/default.jpg,26.09
uwukx6DGmW8,How to Invest (and other money questions with The Financial Diet),vlogbrothers,22,finances|personal finance|stocks|taxes|america|united states|money|education|information|financial|the financial diet|401k|student loans,124372,5073,270,589,https://i.ytimg.com/vi/uwukx6DGmW8/default.jpg,26.09
dt__kig8PVU,ISLE OF DOGS | Official Trailer | FOX Searchlight,FoxSearchlight,1,Isle of Dogs|trailer|wes anderson|wes anderson movie|fantastic mr. fox|stop motion movie|the grand budapest hotel|moonrise kingdom|Scarlett Johansson|Bryan Cranston|Liev Schreiber|Tilda Swinton|Edward Norton|Bill Murray|Greta Gerwig|Jeff Goldblum,4397196,77472,4493,5851,https://i.ytimg.com/vi/dt__kig8PVU/default.jpg,26.09
vS_NlXmPB3I,BACK TO SCHOOL MAKEUP TUTORIAL IN 10 EASY STEPS,Glam&Gore,22,Back To School Makeup Tutorial In 10 Easy Steps|Back to school makeup|school makeup|easy school makeup|easy back to school makeup|gates foundation|goalkeepers|goalkeepers report|education|makeup tutorial|simple makeup tutorial|makeup tutorial in 10 steps|makeup ten easy steps|makeup 10 easy steps|simple makeup 10 steps|beginner makeup|mykie|glam & g|glam&g|glam and g,302505,24172,358,1185,https://i.ytimg.com/vi/vS_NlXmPB3I/default.jpg,26.09
IHi5jq2P_Zk,Maggie Rogers - Split Stones,MaggieRogersVEVO,10,Maggie|Rogers|Split|Stones|Capitol|Records|(US1A)|Alternative,84285,3849,103,257,https://i.ytimg.com/vi/IHi5jq2P_Zk/default.jpg,26.09
8bOuVjbcTgs,Why the Future Could Mean Delivery Straight Into Your Fridge,Walmart,27,[none],49432,66,102,0,https://i.ytimg.com/vi/8bOuVjbcTgs/default.jpg,26.09
wQD1JvJZXdI,Samsung Galaxy Note 8 Review: A $1000 Android!,Marques Brownlee,28,note 8|galaxy note 8|note 8 review|galaxy note 8 review|Samsung Note|Samsung Note 8|stylus|s-pen|unboxing|note 8 unboxing|Note 8 vs|Note 8 camera|Note 8 vs iPhone|Galaxy Note 8 vs|Galaxy Note|samsung galaxy note|samsung s8|galaxy s8|samsug note 8|samsung 8|MKBHD,1676090,55042,1412,7414,https://i.ytimg.com/vi/wQD1JvJZXdI/default.jpg,26.09
ZVPTxFZTQis,KB - Hometeam ft. Lecrae,Reach Records,10,116|hometeam|lecrae|kb|reach records|hip hop|chh|unashamed|not ashamed|hometeam tour,117887,4344,84,570,https://i.ytimg.com/vi/ZVPTxFZTQis/default.jpg,26.09
Hg6L_7qLIEQ,TOYO TIRES | Ken Block’s Climbkhana: Pikes Peak Featuring the Hoonicorn V2,Toyo Tire USA Corp,2,cars|climbkhana|gymkhana|drift|drifting|hoonigan|toyo tires|toyotires|pikespeak|pikes peak|racing|car|new|viral|google|instagram|facebook|hoonicornv2|hoonicorn|canyon|touge|how to|howto|diy|slide or dai|formula drift|formula d|ken block|kenblock|youtube|sema|methanol|turbo|boost|ford|mustang|classic car|classic cars|hooning|burn out|kill all tires|slay tires|sideways|how to burn out|burnout|dji|drone|films|video|photography|colorado|R888r|proxes|fifteen 52|tires,3742082,90192,1980,7126,https://i.ytimg.com/vi/Hg6L_7qLIEQ/default.jpg,27.09
rRi8LptvFZY,Don't Say Velcro,VELCRO® Brand,23,Don't Say Velcro|#dontsayvelcro|Velcro|Velcro shoes|The Holderness Family|Viral marketing|Viral video|Trademark|Corporate lawyer|Funny video|Singing lawyers|velcro brand campaign,313926,5255,1951,1186,https://i.ytimg.com/vi/rRi8LptvFZY/default.jpg,27.09
5e0LMJRJFaY,Rocket Wave Microwavable Notebook- Does This Thing Really Work?,grav3yardgirl,26,beauty|how to|makeup|howto|style|fashion|new|clothes|clothing|bunny|hair|infomercials|infomercial|work|does it work|easy|fast|commercial|funny|strange|grav3yardgirl|best|favorite|review|random|as seen on tv|toy|kids|just for fun|wubble bubble|toys|new kids toys|water balloons|does this thing really work|flawless hair remover|flawless finish|rocketwave|rocketwave notebook|back to school|strange school supplies|weird back to school supplies,393109,14009,369,2587,https://i.ytimg.com/vi/5e0LMJRJFaY/default.jpg,27.09
jYnoFIgUwqY,GenjiSymmetraWinstonSombra Voice Lines!,Hispanglosaxon,23,Overwatch|Blizzard|Games|Gaming|Video Games|Voice actors|voice lines|sombra|symmetra|lucio|mercy|actor|actress|latina|white latina|audition|ethnically ambiguous|ethnic actor|comedy|sketch comedy|characters|ethnically diverse|web series|accent|colombian|humor|funny|languages|hispanglosaxon|carolina ravassa|carolina|winston|genji|gaku space|anjali bhimani|crispin freeman,94789,6763,25,694,https://i.ytimg.com/vi/jYnoFIgUwqY/default.jpg,27.09
vp_Dbt3FPDs,Autumn Homeware Haul | Zoella,Zoella,26,zoe sugg|zoe|sugg|zoella|beauty|cosmetics|fashion|lifestyle|haul|collaboration|friends|funny|british|life|chatty|homeware|home|autumn|halloween,882089,63566,611,4450,https://i.ytimg.com/vi/vp_Dbt3FPDs/default.jpg,27.09
xIhTtzJ-mj4,(FULL) Cavaliers’ Isaiah Thomas press conference | 2017 NBA Media Day | ESPN,ESPN,17,nba media day|full isaiah thomas press conference|isaiah thomas cavs media day|isaiah thomas press conference|cavaliers|isaiah thomas|isaiah thomas cavs presser|isaiah thomas cavaliers|nba media|cavaliers media day|nba press conference|cavs media day|2017 nba media day|isaiah t|it4|thomas|isiah|isiah thomas|cleveland cavaliers|cleveland|cavs|basketball|nba|presser|full isaiah thomas presser|media|hoops|isaiah thomas trade|isaiah thomas cavs|ESPN,181333,1683,60,682,https://i.ytimg.com/vi/xIhTtzJ-mj4/default.jpg,27.09
1Q-ZREGfxTI,10 New OREO Flavors!!! Taste Test Challenge-a-thon - Man Vs Youtube,Rob Czar,24,man vs youtube|man vs pin|rob czar|oreo|oreo cookie|oreo challenge|threadbanger|corinne leigh|pizza oreos|philly cheesesteak oreos|oreo cookie challenge|tasting weird oreo flavors,706042,31247,1724,3046,https://i.ytimg.com/vi/1Q-ZREGfxTI/default.jpg,27.09
dt__kig8PVU,ISLE OF DOGS | Official Trailer | FOX Searchlight,FoxSearchlight,1,Isle of Dogs|trailer|wes anderson|wes anderson movie|fantastic mr. fox|stop motion movie|the grand budapest hotel|moonrise kingdom|Scarlett Johansson|Bryan Cranston|Liev Schreiber|Tilda Swinton|Edward Norton|Bill Murray|Greta Gerwig|Jeff Goldblum,4828206,79750,4586,5999,https://i.ytimg.com/vi/dt__kig8PVU/default.jpg,27.09
vS_NlXmPB3I,BACK TO SCHOOL MAKEUP TUTORIAL IN 10 EASY STEPS,Glam&Gore,22,Back To School Makeup Tutorial In 10 Easy Steps|Back to school makeup|school makeup|easy school makeup|easy back to school makeup|gates foundation|goalkeepers|goalkeepers report|education|makeup tutorial|simple makeup tutorial|makeup tutorial in 10 steps|makeup ten easy steps|makeup 10 easy steps|simple makeup 10 steps|beginner makeup|mykie|glam & g|glam&g|glam and g,308433,24520,362,1176,https://i.ytimg.com/vi/vS_NlXmPB3I/default.jpg,27.09
Hg6L_7qLIEQ,TOYO TIRES | Ken Block’s Climbkhana: Pikes Peak Featuring the Hoonicorn V2,Toyo Tire USA Corp,2,cars|climbkhana|gymkhana|drift|drifting|hoonigan|toyo tires|toyotires|pikespeak|pikes peak|racing|car|new|viral|google|instagram|facebook|hoonicornv2|hoonicorn|canyon|touge|how to|howto|diy|slide or dai|formula drift|formula d|ken block|kenblock|youtube|sema|methanol|turbo|boost|ford|mustang|classic car|classic cars|hooning|burn out|kill all tires|slay tires|sideways|how to burn out|burnout|dji|drone|films|video|photography|colorado|R888r|proxes|fifteen 52|tires,4497424,100535,2238,7850,https://i.ytimg.com/vi/Hg6L_7qLIEQ/default.jpg,28.09
rRi8LptvFZY,Don't Say Velcro,VELCRO® Brand,23,Don't Say Velcro|#dontsayvelcro|Velcro|Velcro shoes|The Holderness Family|Viral marketing|Viral video|Trademark|Corporate lawyer|Funny video|Singing lawyers|velcro brand campaign,354679,5756,2082,1257,https://i.ytimg.com/vi/rRi8LptvFZY/default.jpg,28.09
jYnoFIgUwqY,GenjiSymmetraWinstonSombra Voice Lines!,Hispanglosaxon,23,Overwatch|Blizzard|Games|Gaming|Video Games|Voice actors|voice lines|sombra|symmetra|lucio|mercy|actor|actress|latina|white latina|audition|ethnically ambiguous|ethnic actor|comedy|sketch comedy|characters|ethnically diverse|web series|accent|colombian|humor|funny|languages|hispanglosaxon|carolina ravassa|carolina|winston|genji|gaku space|anjali bhimani|crispin freeman,121723,8269,35,847,https://i.ytimg.com/vi/jYnoFIgUwqY/default.jpg,28.09
5e0LMJRJFaY,Rocket Wave Microwavable Notebook- Does This Thing Really Work?,grav3yardgirl,26,beauty|how to|makeup|howto|style|fashion|new|clothes|clothing|bunny|hair|infomercials|infomercial|work|does it work|easy|fast|commercial|funny|strange|grav3yardgirl|best|favorite|review|random|as seen on tv|toy|kids|just for fun|wubble bubble|toys|new kids toys|water balloons|does this thing really work|flawless hair remover|flawless finish|rocketwave|rocketwave notebook|back to school|strange school supplies|weird back to school supplies,448100,15272,430,2880,https://i.ytimg.com/vi/5e0LMJRJFaY/default.jpg,28.09
vp_Dbt3FPDs,Autumn Homeware Haul | Zoella,Zoella,26,zoe sugg|zoe|sugg|zoella|beauty|cosmetics|fashion|lifestyle|haul|collaboration|friends|funny|british|life|chatty|homeware|home|autumn|halloween,988656,68172,674,4594,https://i.ytimg.com/vi/vp_Dbt3FPDs/default.jpg,28.09
1Q-ZREGfxTI,10 New OREO Flavors!!! Taste Test Challenge-a-thon - Man Vs Youtube,Rob Czar,24,man vs youtube|man vs pin|rob czar|oreo|oreo cookie|oreo challenge|threadbanger|corinne leigh|pizza oreos|philly cheesesteak oreos|oreo cookie challenge|tasting weird oreo flavors,724916,31810,1747,3109,https://i.ytimg.com/vi/1Q-ZREGfxTI/default.jpg,28.09
nvAhI3ZjnjU,Jamie Foxx and Jay Pharoah Play the Impressions Game,TheEllenShow,24,Impression game|Jamie Foxx|Jamie|Foxx|Jay Pharoah|Jay|Pharoah|impressions|Cheerios|Ellen|degeneres|ellen degeneres|the ellen show|ellen fans|ellen tickets|ellentube|ellen audience,329288,7274,235,544,https://i.ytimg.com/vi/nvAhI3ZjnjU/default.jpg,29.09
G_wmoWfZQAM,Makeup Tips & Secrets With Superstar Ariel Tejada | Shay Mitchell,Shay Mitchell,26,Shay Mitchell|Shay|Shay Mitchell YouTube|YouTube Shay Mitchell|ShayM|Pretty Little Liars|PLL|Emily Fields|ABC Family|Actress|Amore and Vita|Fashion|Beauty|Makeup|Beauty Tips|Biore|Anastasia Beverly Hills|Kevyn Aucoin|Moisturizer|IT Cosmetics|La Mer|Laura Mercier|Kylie Makeup|Kylie Jenner|Tom Ford|Mac Bronzer|Sephora|Nars Eyeshadow|Charlotte Tilbury|Eyelashes|Eyebrows|Concealer|Eyebrow Pencil|Biore One Minute Mask|Embryolisse Creme Concentrate,279172,18913,340,1645,https://i.ytimg.com/vi/G_wmoWfZQAM/default.jpg,29.09
vr0qNXmkUJ8,GoPro HERO6: This Is the Moment in 4K,GoPro,17,GoPro|Hero5|Hero Camera|HD Camera|stoked|rad|HD|best|go pro|cam|epic|hero4 session|Hero5 Session|session|action|beautiful|crazy|high definition|high def|be a hero|beahero|karma|gpro|4K|4K60|1080 120|120fps|Drone|Karma Drone|GoPro Fusion|360 camera|hero6|hero six|60fps|hero 6|surf|travel|gorillas|motocross|sand dunes|slow motion|slomo|stabilization|dive|sharks|free dive|rescue|kangaroo|launch|new,236490,10556,82,782,https://i.ytimg.com/vi/vr0qNXmkUJ8/default.jpg,29.09
iTUsiJh9PgE,Dramatic Vampy Fall Makeup Tutorial,Christen Dominique,26,makeup|tutorial|makeup tutorial|fall makeup|vampy glam makeup|autumn makeup|glam|autumn|vampy|vampy makeup tutorial|fall makeup tutorial|fall|dark lips|bold|beauty|fall makeup look|full glam|glam makeup|christen dominique|transformation|glam makeup tutorial|how to|2017|christen|dominique|tips|bold lips|makeup look|autumn makeup tutorial|dramatic fall makeup|make up|review|fall vamp makeup,181184,16719,172,1756,https://i.ytimg.com/vi/iTUsiJh9PgE/default.jpg,29.09
LtJ60u7SUSw,Darkest Hour - Official International Trailer (Universal Pictures) HD,Universal Pictures UK,24,Darkest Hour|Winston Churchill|Gary Oldman|Kristin Scott Thomas|Lily James|Stephen Dillane|Ronald Pickup and Ben Mendelsohn|Joe Wright|Anthony McCarten|Working Title|Focus Features|film|London|history|drama|official trailer|trailer|Universal Pictures UK Darkest Hour,88853,183,5,39,https://i.ytimg.com/vi/LtJ60u7SUSw/default.jpg,29.09
E6PU9IvLJM0,"Bobby Roode calls out Dolph Ziggler: SmackDown LIVE, Sept. 26, 2017",WWE,17,wwe|world wrestling entertainment|wrestling|wrestler|wrestle|superstars|कुश्ती|पहलवान|डब्लू डब्लू ई|मैच|सुपरस्टार|व्यावसायिक कुश्ती|مصارعه|SmackDown LIVE|Dolph Ziggler|Bobby Roode|sp:ty=high|sp:st=wrestling|sp:scp=athlete_in_match|sp:dt=2017-09-26T20:00:00-04:00|sp:ev=wwe-smack|sp:ath=wwe-dozi|sp:ath=wwe-boro|smackdown|ziggler|roode|bobby|entrance|dolph|wwe smackdown|wwe smackdown live|glorious|undertaker|deadman|taker,867814,16836,825,3362,https://i.ytimg.com/vi/E6PU9IvLJM0/default.jpg,29.09
Hg6L_7qLIEQ,TOYO TIRES | Ken Block’s Climbkhana: Pikes Peak Featuring the Hoonicorn V2,Toyo Tire USA Corp,2,cars|climbkhana|gymkhana|drift|drifting|hoonigan|toyo tires|toyotires|pikespeak|pikes peak|racing|car|new|viral|google|instagram|facebook|hoonicornv2|hoonicorn|canyon|touge|how to|howto|diy|slide or dai|formula drift|formula d|ken block|kenblock|youtube|sema|methanol|turbo|boost|ford|mustang|classic car|classic cars|hooning|burn out|kill all tires|slay tires|sideways|how to burn out|burnout|dji|drone|films|video|photography|colorado|R888r|proxes|fifteen 52|tires,4951178,106811,2396,8133,https://i.ytimg.com/vi/Hg6L_7qLIEQ/default.jpg,29.09
X8Ijui33P6I,Meet the Man Building Human-Sized Nests,Great Big Story,22,great big story|gbs|lag|documentary|docs|Art|architecture|nests|spirit nests|design|nature|environment|California|Nature & Animals|Biography & Profile|Travel & Adventure,79184,2431,42,259,https://i.ytimg.com/vi/X8Ijui33P6I/default.jpg,29.09
rRi8LptvFZY,Don't Say Velcro,VELCRO® Brand,23,Don't Say Velcro|#dontsayvelcro|Velcro|Velcro shoes|The Holderness Family|Viral marketing|Viral video|Trademark|Corporate lawyer|Funny video|Singing lawyers|velcro brand campaign,373150,5892,2103,1288,https://i.ytimg.com/vi/rRi8LptvFZY/default.jpg,29.09
5e0LMJRJFaY,Rocket Wave Microwavable Notebook- Does This Thing Really Work?,grav3yardgirl,26,beauty|how to|makeup|howto|style|fashion|new|clothes|clothing|bunny|hair|infomercials|infomercial|work|does it work|easy|fast|commercial|funny|strange|grav3yardgirl|best|favorite|review|random|as seen on tv|toy|kids|just for fun|wubble bubble|toys|new kids toys|water balloons|does this thing really work|flawless hair remover|flawless finish|rocketwave|rocketwave notebook|back to school|strange school supplies|weird back to school supplies,471059,15764,443,2329,https://i.ytimg.com/vi/5e0LMJRJFaY/default.jpg,29.09
vp_Dbt3FPDs,Autumn Homeware Haul | Zoella,Zoella,26,zoe sugg|zoe|sugg|zoella|beauty|cosmetics|fashion|lifestyle|haul|collaboration|friends|funny|british|life|chatty|homeware|home|autumn|halloween,1047285,70497,700,4769,https://i.ytimg.com/vi/vp_Dbt3FPDs/default.jpg,29.09
jYnoFIgUwqY,GenjiSymmetraWinstonSombra Voice Lines!,Hispanglosaxon,23,Overwatch|Blizzard|Games|Gaming|Video Games|Voice actors|voice lines|sombra|symmetra|lucio|mercy|actor|actress|latina|white latina|audition|ethnically ambiguous|ethnic actor|comedy|sketch comedy|characters|ethnically diverse|web series|accent|colombian|humor|funny|languages|hispanglosaxon|carolina ravassa|carolina|winston|genji|gaku space|anjali bhimani|crispin freeman,203831,12379,79,1225,https://i.ytimg.com/vi/jYnoFIgUwqY/default.jpg,29.09
439iY0844xI,Aladdin Makes No Sense,SuperCarlinBrothers,22,SuperCarlinBrothers|aladdin|disney|disney aladdin|jasmine|disney princess|genie|robin williams|jafar|aladdin makes no sense|disney renaissance|super carlin brothers|j carlin|jonathan carlin|ben carlin|beauty and the beast makes no sense|abu|aladdin full movie|aladdin songs|a whole new world|prince ali|disney musical|live action aladdin|will smith|aladdin theory|cave of wonders|friend like me|aladin|aladdin (1992 disney film)|film analysis|walt disney,351404,14488,837,3420,https://i.ytimg.com/vi/439iY0844xI/default.jpg,30.09
nvAhI3ZjnjU,Jamie Foxx and Jay Pharoah Play the Impressions Game,TheEllenShow,24,Impression game|Jamie Foxx|Jamie|Foxx|Jay Pharoah|Jay|Pharoah|impressions|Cheerios|Ellen|degeneres|ellen degeneres|the ellen show|ellen fans|ellen tickets|ellentube|ellen audience,744830,12512,469,785,https://i.ytimg.com/vi/nvAhI3ZjnjU/default.jpg,30.09
G_wmoWfZQAM,Makeup Tips & Secrets With Superstar Ariel Tejada | Shay Mitchell,Shay Mitchell,26,Shay Mitchell|Shay|Shay Mitchell YouTube|YouTube Shay Mitchell|ShayM|Pretty Little Liars|PLL|Emily Fields|ABC Family|Actress|Amore and Vita|Fashion|Beauty|Makeup|Beauty Tips|Biore|Anastasia Beverly Hills|Kevyn Aucoin|Moisturizer|IT Cosmetics|La Mer|Laura Mercier|Kylie Makeup|Kylie Jenner|Tom Ford|Mac Bronzer|Sephora|Nars Eyeshadow|Charlotte Tilbury|Eyelashes|Eyebrows|Concealer|Eyebrow Pencil|Biore One Minute Mask|Embryolisse Creme Concentrate,576156,31033,606,2439,https://i.ytimg.com/vi/G_wmoWfZQAM/default.jpg,30.09
vr0qNXmkUJ8,GoPro HERO6: This Is the Moment in 4K,GoPro,17,GoPro|Hero5|Hero Camera|HD Camera|stoked|rad|HD|best|go pro|cam|epic|hero4 session|Hero5 Session|session|action|beautiful|crazy|high definition|high def|be a hero|beahero|karma|gpro|4K|4K60|1080 120|120fps|Drone|Karma Drone|GoPro Fusion|360 camera|hero6|hero six|60fps|hero 6|surf|travel|gorillas|motocross|sand dunes|slow motion|slomo|stabilization|dive|sharks|free dive|rescue|kangaroo|launch|new,532613,16652,148,1178,https://i.ytimg.com/vi/vr0qNXmkUJ8/default.jpg,30.09
iTUsiJh9PgE,Dramatic Vampy Fall Makeup Tutorial,Christen Dominique,26,makeup|tutorial|makeup tutorial|fall makeup|vampy glam makeup|autumn makeup|glam|autumn|vampy|vampy makeup tutorial|fall makeup tutorial|fall|dark lips|bold|beauty|fall makeup look|full glam|glam makeup|christen dominique|transformation|glam makeup tutorial|how to|2017|christen|dominique|tips|bold lips|makeup look|autumn makeup tutorial|dramatic fall makeup|make up|review|fall vamp makeup,210053,18591,191,1835,https://i.ytimg.com/vi/iTUsiJh9PgE/default.jpg,30.09
tJfIZlZVhqM,Reese Witherspoon Passionately Speaks About Roles for Women | Lorraine,Lorraine,24,lorraine|lorraine kelly|lorraine itv|lorraine interview|interview on lorraine|chat show|talk show|brand new|celebrity|featured|reese witherspoon|reese witherspoon oscar|oscars|walk the line|reese witherspoon legally blonde|legally blonde|legally blonde 2|feminism|roles for women|older women|hollywood sexism|sexism|gender roles|men|women,7119,28,1,0,https://i.ytimg.com/vi/tJfIZlZVhqM/default.jpg,30.09
LtJ60u7SUSw,Darkest Hour - Official International Trailer (Universal Pictures) HD,Universal Pictures UK,24,Darkest Hour|Winston Churchill|Gary Oldman|Kristin Scott Thomas|Lily James|Stephen Dillane|Ronald Pickup and Ben Mendelsohn|Joe Wright|Anthony McCarten|Working Title|Focus Features|film|London|history|drama|official trailer|trailer|Universal Pictures UK Darkest Hour,241042,270,8,70,https://i.ytimg.com/vi/LtJ60u7SUSw/default.jpg,30.09
E6PU9IvLJM0,"Bobby Roode calls out Dolph Ziggler: SmackDown LIVE, Sept. 26, 2017",WWE,17,wwe|world wrestling entertainment|wrestling|wrestler|wrestle|superstars|कुश्ती|पहलवान|डब्लू डब्लू ई|मैच|सुपरस्टार|व्यावसायिक कुश्ती|مصارعه|SmackDown LIVE|Dolph Ziggler|Bobby Roode|sp:ty=high|sp:st=wrestling|sp:scp=athlete_in_match|sp:dt=2017-09-26T20:00:00-04:00|sp:ev=wwe-smack|sp:ath=wwe-dozi|sp:ath=wwe-boro|smackdown|ziggler|roode|bobby|entrance|dolph|wwe smackdown|wwe smackdown live|glorious|undertaker|deadman|taker,888714,17115,838,2417,https://i.ytimg.com/vi/E6PU9IvLJM0/default.jpg,30.09
X8Ijui33P6I,Meet the Man Building Human-Sized Nests,Great Big Story,22,great big story|gbs|lag|documentary|docs|Art|architecture|nests|spirit nests|design|nature|environment|California|Nature & Animals|Biography & Profile|Travel & Adventure,94035,2597,48,260,https://i.ytimg.com/vi/X8Ijui33P6I/default.jpg,30.09
Hg6L_7qLIEQ,TOYO TIRES | Ken Block’s Climbkhana: Pikes Peak Featuring the Hoonicorn V2,Toyo Tire USA Corp,2,cars|climbkhana|gymkhana|drift|drifting|hoonigan|toyo tires|toyotires|pikespeak|pikes peak|racing|car|new|viral|google|instagram|facebook|hoonicornv2|hoonicorn|canyon|touge|how to|howto|diy|slide or dai|formula drift|formula d|ken block|kenblock|youtube|sema|methanol|turbo|boost|ford|mustang|classic car|classic cars|hooning|burn out|kill all tires|slay tires|sideways|how to burn out|burnout|dji|drone|films|video|photography|colorado|R888r|proxes|fifteen 52|tires,5564352,116228,2607,6872,https://i.ytimg.com/vi/Hg6L_7qLIEQ/default.jpg,30.09
rRi8LptvFZY,Don't Say Velcro,VELCRO® Brand,23,Don't Say Velcro|#dontsayvelcro|Velcro|Velcro shoes|The Holderness Family|Viral marketing|Viral video|Trademark|Corporate lawyer|Funny video|Singing lawyers|velcro brand campaign,384001,5960,2119,105,https://i.ytimg.com/vi/rRi8LptvFZY/default.jpg,30.09
439iY0844xI,Aladdin Makes No Sense,SuperCarlinBrothers,22,SuperCarlinBrothers|aladdin|disney|disney aladdin|jasmine|disney princess|genie|robin williams|jafar|aladdin makes no sense|disney renaissance|super carlin brothers|j carlin|jonathan carlin|ben carlin|beauty and the beast makes no sense|abu|aladdin full movie|aladdin songs|a whole new world|prince ali|disney musical|live action aladdin|will smith|aladdin theory|cave of wonders|friend like me|aladin|aladdin (1992 disney film)|film analysis|walt disney,455380,16655,1183,3032,https://i.ytimg.com/vi/439iY0844xI/default.jpg,01.10
nvAhI3ZjnjU,Jamie Foxx and Jay Pharoah Play the Impressions Game,TheEllenShow,24,Impression game|Jamie Foxx|Jamie|Foxx|Jay Pharoah|Jay|Pharoah|impressions|Cheerios|Ellen|degeneres|ellen degeneres|the ellen show|ellen fans|ellen tickets|ellentube|ellen audience,1069359,16181,615,587,https://i.ytimg.com/vi/nvAhI3ZjnjU/default.jpg,01.10
GuEQtn2nm9A,Meet The Black Comedian Who Has Become Japan’s Most Unlikely Star (HBO),VICE News,25,VICE News|VICE News Tonight|Vice|VNT|HBO|race|Japan|Nigeria|Television|TV|celebrity|racism|Japanese|comedy|comedy trope|Goldman Sachs|language|culture|English|fame|Ike Nwala|imitation|arts and entertainment|music|kids show|ethnicity|diversity|children|education|career,72519,2362,166,611,https://i.ytimg.com/vi/GuEQtn2nm9A/default.jpg,01.10
rh8b-Ibzkfg,WILD SPACEAGE HALLOWEEN ALIEN TRANSFORMATION | John Maclean,John Maclean,26,Black Face|Blue Face|Black|Blue|John Maclean|Editorial|Avante Guard|Confetti|Fenty Beauty|Moonchild|blue highlighter|blinding highlighter|best highlighter|halloween looks|shocking halloween makeup|shocking halloween costumes|halloween make up|halloween makeup|halloween|halloween makeup tutorial|wild makeup|spaceage|michael jackson|marilyn manson|omega|alpha|mechanical animals|ASMR|Soothing Voice|Anxiety|dealing with anxiety,27063,2465,44,532,https://i.ytimg.com/vi/rh8b-Ibzkfg/default.jpg,01.10
aeUyLiIlDVE,Peter Helliar in a Finnish Sauna - The Project,TheRealFake00,24,The Project|Peter Helliar|Finnish Sauna|Waleed Ali|Channel 10|Channel ten|Naked,123552,228,18,21,https://i.ytimg.com/vi/aeUyLiIlDVE/default.jpg,01.10
G_wmoWfZQAM,Makeup Tips & Secrets With Superstar Ariel Tejada | Shay Mitchell,Shay Mitchell,26,Shay Mitchell|Shay|Shay Mitchell YouTube|YouTube Shay Mitchell|ShayM|Pretty Little Liars|PLL|Emily Fields|ABC Family|Actress|Amore and Vita|Fashion|Beauty|Makeup|Beauty Tips|Biore|Anastasia Beverly Hills|Kevyn Aucoin|Moisturizer|IT Cosmetics|La Mer|Laura Mercier|Kylie Makeup|Kylie Jenner|Tom Ford|Mac Bronzer|Sephora|Nars Eyeshadow|Charlotte Tilbury|Eyelashes|Eyebrows|Concealer|Eyebrow Pencil|Biore One Minute Mask|Embryolisse Creme Concentrate,706590,36284,682,2112,https://i.ytimg.com/vi/G_wmoWfZQAM/default.jpg,01.10
vr0qNXmkUJ8,GoPro HERO6: This Is the Moment in 4K,GoPro,17,GoPro|Hero5|Hero Camera|HD Camera|stoked|rad|HD|best|go pro|cam|epic|hero4 session|Hero5 Session|session|action|beautiful|crazy|high definition|high def|be a hero|beahero|karma|gpro|4K|4K60|1080 120|120fps|Drone|Karma Drone|GoPro Fusion|360 camera|hero6|hero six|60fps|hero 6|surf|travel|gorillas|motocross|sand dunes|slow motion|slomo|stabilization|dive|sharks|free dive|rescue|kangaroo|launch|new,722872,19653,174,1443,https://i.ytimg.com/vi/vr0qNXmkUJ8/default.jpg,01.10
iTUsiJh9PgE,Dramatic Vampy Fall Makeup Tutorial,Christen Dominique,26,makeup|tutorial|makeup tutorial|fall makeup|vampy glam makeup|autumn makeup|glam|autumn|vampy|vampy makeup tutorial|fall makeup tutorial|fall|dark lips|bold|beauty|fall makeup look|full glam|glam makeup|christen dominique|transformation|glam makeup tutorial|how to|2017|christen|dominique|tips|bold lips|makeup look|autumn makeup tutorial|dramatic fall makeup|make up|review|fall vamp makeup,236491,20055,198,1444,https://i.ytimg.com/vi/iTUsiJh9PgE/default.jpg,01.10
tJfIZlZVhqM,Reese Witherspoon Passionately Speaks About Roles for Women | Lorraine,Lorraine,24,lorraine|lorraine kelly|lorraine itv|lorraine interview|interview on lorraine|chat show|talk show|brand new|celebrity|featured|reese witherspoon|reese witherspoon oscar|oscars|walk the line|reese witherspoon legally blonde|legally blonde|legally blonde 2|feminism|roles for women|older women|hollywood sexism|sexism|gender roles|men|women,9980,34,1,0,https://i.ytimg.com/vi/tJfIZlZVhqM/default.jpg,01.10
LtJ60u7SUSw,Darkest Hour - Official International Trailer (Universal Pictures) HD,Universal Pictures UK,24,Darkest Hour|Winston Churchill|Gary Oldman|Kristin Scott Thomas|Lily James|Stephen Dillane|Ronald Pickup and Ben Mendelsohn|Joe Wright|Anthony McCarten|Working Title|Focus Features|film|London|history|drama|official trailer|trailer|Universal Pictures UK Darkest Hour,443500,361,11,91,https://i.ytimg.com/vi/LtJ60u7SUSw/default.jpg,01.10
439iY0844xI,Aladdin Makes No Sense,SuperCarlinBrothers,22,SuperCarlinBrothers|aladdin|disney|disney aladdin|jasmine|disney princess|genie|robin williams|jafar|aladdin makes no sense|disney renaissance|super carlin brothers|j carlin|jonathan carlin|ben carlin|beauty and the beast makes no sense|abu|aladdin full movie|aladdin songs|a whole new world|prince ali|disney musical|live action aladdin|will smith|aladdin theory|cave of wonders|friend like me|aladin|aladdin (1992 disney film)|film analysis|walt disney,494218,17705,1230,3158,https://i.ytimg.com/vi/439iY0844xI/default.jpg,02.10
nvAhI3ZjnjU,Jamie Foxx and Jay Pharoah Play the Impressions Game,TheEllenShow,24,Impression game|Jamie Foxx|Jamie|Foxx|Jay Pharoah|Jay|Pharoah|impressions|Cheerios|Ellen|degeneres|ellen degeneres|the ellen show|ellen fans|ellen tickets|ellentube|ellen audience,1139711,16968,638,617,https://i.ytimg.com/vi/nvAhI3ZjnjU/default.jpg,02.10
GuEQtn2nm9A,Meet The Black Comedian Who Has Become Japan’s Most Unlikely Star (HBO),VICE News,25,VICE News|VICE News Tonight|Vice|VNT|HBO|race|Japan|Nigeria|Television|TV|celebrity|racism|Japanese|comedy|comedy trope|Goldman Sachs|language|culture|English|fame|Ike Nwala|imitation|arts and entertainment|music|kids show|ethnicity|diversity|children|education|career,81757,2528,177,636,https://i.ytimg.com/vi/GuEQtn2nm9A/default.jpg,02.10
rh8b-Ibzkfg,WILD SPACEAGE HALLOWEEN ALIEN TRANSFORMATION | John Maclean,John Maclean,26,Black Face|Blue Face|Black|Blue|John Maclean|Editorial|Avante Guard|Confetti|Fenty Beauty|Moonchild|blue highlighter|blinding highlighter|best highlighter|halloween looks|shocking halloween makeup|shocking halloween costumes|halloween make up|halloween makeup|halloween|halloween makeup tutorial|wild makeup|spaceage|michael jackson|marilyn manson|omega|alpha|mechanical animals|ASMR|Soothing Voice|Anxiety|dealing with anxiety,30166,2663,44,552,https://i.ytimg.com/vi/rh8b-Ibzkfg/default.jpg,02.10
aeUyLiIlDVE,Peter Helliar in a Finnish Sauna - The Project,TheRealFake00,24,The Project|Peter Helliar|Finnish Sauna|Waleed Ali|Channel 10|Channel ten|Naked,127287,230,18,22,https://i.ytimg.com/vi/aeUyLiIlDVE/default.jpg,02.10
G_wmoWfZQAM,Makeup Tips & Secrets With Superstar Ariel Tejada | Shay Mitchell,Shay Mitchell,26,Shay Mitchell|Shay|Shay Mitchell YouTube|YouTube Shay Mitchell|ShayM|Pretty Little Liars|PLL|Emily Fields|ABC Family|Actress|Amore and Vita|Fashion|Beauty|Makeup|Beauty Tips|Biore|Anastasia Beverly Hills|Kevyn Aucoin|Moisturizer|IT Cosmetics|La Mer|Laura Mercier|Kylie Makeup|Kylie Jenner|Tom Ford|Mac Bronzer|Sephora|Nars Eyeshadow|Charlotte Tilbury|Eyelashes|Eyebrows|Concealer|Eyebrow Pencil|Biore One Minute Mask|Embryolisse Creme Concentrate,808999,40030,729,2245,https://i.ytimg.com/vi/G_wmoWfZQAM/default.jpg,02.10
vr0qNXmkUJ8,GoPro HERO6: This Is the Moment in 4K,GoPro,17,GoPro|Hero5|Hero Camera|HD Camera|stoked|rad|HD|best|go pro|cam|epic|hero4 session|Hero5 Session|session|action|beautiful|crazy|high definition|high def|be a hero|beahero|karma|gpro|4K|4K60|1080 120|120fps|Drone|Karma Drone|GoPro Fusion|360 camera|hero6|hero six|60fps|hero 6|surf|travel|gorillas|motocross|sand dunes|slow motion|slomo|stabilization|dive|sharks|free dive|rescue|kangaroo|launch|new,826192,20915,193,1229,https://i.ytimg.com/vi/vr0qNXmkUJ8/default.jpg,02.10
tJfIZlZVhqM,Reese Witherspoon Passionately Speaks About Roles for Women | Lorraine,Lorraine,24,lorraine|lorraine kelly|lorraine itv|lorraine interview|interview on lorraine|chat show|talk show|brand new|celebrity|featured|reese witherspoon|reese witherspoon oscar|oscars|walk the line|reese witherspoon legally blonde|legally blonde|legally blonde 2|feminism|roles for women|older women|hollywood sexism|sexism|gender roles|men|women,12877,34,1,0,https://i.ytimg.com/vi/tJfIZlZVhqM/default.jpg,02.10
iTUsiJh9PgE,Dramatic Vampy Fall Makeup Tutorial,Christen Dominique,26,makeup|tutorial|makeup tutorial|fall makeup|vampy glam makeup|autumn makeup|glam|autumn|vampy|vampy makeup tutorial|fall makeup tutorial|fall|dark lips|bold|beauty|fall makeup look|full glam|glam makeup|christen dominique|transformation|glam makeup tutorial|how to|2017|christen|dominique|tips|bold lips|makeup look|autumn makeup tutorial|dramatic fall makeup|make up|review|fall vamp makeup,251501,20853,204,1497,https://i.ytimg.com/vi/iTUsiJh9PgE/default.jpg,02.10
LtJ60u7SUSw,Darkest Hour - Official International Trailer (Universal Pictures) HD,Universal Pictures UK,24,Darkest Hour|Winston Churchill|Gary Oldman|Kristin Scott Thomas|Lily James|Stephen Dillane|Ronald Pickup and Ben Mendelsohn|Joe Wright|Anthony McCarten|Working Title|Focus Features|film|London|history|drama|official trailer|trailer|Universal Pictures UK Darkest Hour,631815,401,12,110,https://i.ytimg.com/vi/LtJ60u7SUSw/default.jpg,02.10
znX0DeVq72o,WATCH: Sarah Sanders discusses Las Vegas shooting at White House news briefing,PBS NewsHour,25,Donald Trump|White House|Sarah Huckabee Sanders|Las Vegas shooting|news briefing,33337,240,280,0,https://i.ytimg.com/vi/znX0DeVq72o/default.jpg,03.10
oSV39tYy3Xg,Bart Deurloo (NED) Interview / High Bar Crash - 2017 World Championships - Podium Training,GymCastic,17,gymnastics|podcast|radio|talk show|Bart Deurloo|Netherlands|high bar|crash|interview|world championships|montreal|gymcastic|podium training,12409,8,0,4,https://i.ytimg.com/vi/oSV39tYy3Xg/default.jpg,03.10
439iY0844xI,Aladdin Makes No Sense,SuperCarlinBrothers,22,SuperCarlinBrothers|aladdin|disney|disney aladdin|jasmine|disney princess|genie|robin williams|jafar|aladdin makes no sense|disney renaissance|super carlin brothers|j carlin|jonathan carlin|ben carlin|beauty and the beast makes no sense|abu|aladdin full movie|aladdin songs|a whole new world|prince ali|disney musical|live action aladdin|will smith|aladdin theory|cave of wonders|friend like me|aladin|aladdin (1992 disney film)|film analysis|walt disney,512374,18247,1258,3239,https://i.ytimg.com/vi/439iY0844xI/default.jpg,03.10
nvAhI3ZjnjU,Jamie Foxx and Jay Pharoah Play the Impressions Game,TheEllenShow,24,Impression game|Jamie Foxx|Jamie|Foxx|Jay Pharoah|Jay|Pharoah|impressions|Cheerios|Ellen|degeneres|ellen degeneres|the ellen show|ellen fans|ellen tickets|ellentube|ellen audience,1185437,17447,644,609,https://i.ytimg.com/vi/nvAhI3ZjnjU/default.jpg,03.10
rh8b-Ibzkfg,WILD SPACEAGE HALLOWEEN ALIEN TRANSFORMATION | John Maclean,John Maclean,26,Black Face|Blue Face|Black|Blue|John Maclean|Editorial|Avante Guard|Confetti|Fenty Beauty|Moonchild|blue highlighter|blinding highlighter|best highlighter|halloween looks|shocking halloween makeup|shocking halloween costumes|halloween make up|halloween makeup|halloween|halloween makeup tutorial|wild makeup|spaceage|michael jackson|marilyn manson|omega|alpha|mechanical animals|ASMR|Soothing Voice|Anxiety|dealing with anxiety,32281,2797,44,560,https://i.ytimg.com/vi/rh8b-Ibzkfg/default.jpg,03.10
GuEQtn2nm9A,Meet The Black Comedian Who Has Become Japan’s Most Unlikely Star (HBO),VICE News,25,VICE News|VICE News Tonight|Vice|VNT|HBO|race|Japan|Nigeria|Television|TV|celebrity|racism|Japanese|comedy|comedy trope|Goldman Sachs|language|culture|English|fame|Ike Nwala|imitation|arts and entertainment|music|kids show|ethnicity|diversity|children|education|career,92708,2741,185,694,https://i.ytimg.com/vi/GuEQtn2nm9A/default.jpg,03.10
G_wmoWfZQAM,Makeup Tips & Secrets With Superstar Ariel Tejada | Shay Mitchell,Shay Mitchell,26,Shay Mitchell|Shay|Shay Mitchell YouTube|YouTube Shay Mitchell|ShayM|Pretty Little Liars|PLL|Emily Fields|ABC Family|Actress|Amore and Vita|Fashion|Beauty|Makeup|Beauty Tips|Biore|Anastasia Beverly Hills|Kevyn Aucoin|Moisturizer|IT Cosmetics|La Mer|Laura Mercier|Kylie Makeup|Kylie Jenner|Tom Ford|Mac Bronzer|Sephora|Nars Eyeshadow|Charlotte Tilbury|Eyelashes|Eyebrows|Concealer|Eyebrow Pencil|Biore One Minute Mask|Embryolisse Creme Concentrate,882386,42516,767,2338,https://i.ytimg.com/vi/G_wmoWfZQAM/default.jpg,03.10
aeUyLiIlDVE,Peter Helliar in a Finnish Sauna - The Project,TheRealFake00,24,The Project|Peter Helliar|Finnish Sauna|Waleed Ali|Channel 10|Channel ten|Naked,129200,231,18,25,https://i.ytimg.com/vi/aeUyLiIlDVE/default.jpg,03.10
vr0qNXmkUJ8,GoPro HERO6: This Is the Moment in 4K,GoPro,17,GoPro|Hero5|Hero Camera|HD Camera|stoked|rad|HD|best|go pro|cam|epic|hero4 session|Hero5 Session|session|action|beautiful|crazy|high definition|high def|be a hero|beahero|karma|gpro|4K|4K60|1080 120|120fps|Drone|Karma Drone|GoPro Fusion|360 camera|hero6|hero six|60fps|hero 6|surf|travel|gorillas|motocross|sand dunes|slow motion|slomo|stabilization|dive|sharks|free dive|rescue|kangaroo|launch|new,904918,21893,203,1258,https://i.ytimg.com/vi/vr0qNXmkUJ8/default.jpg,03.10
PNPMEQm_vAI,How To Make A GIANT CAKE PUN PENCIL Out Of Chocolate CAKE! | Yolanda Gampp | How To Cake It,How To Cake It,26,Google|YouTube|Yolanda Gampp|Yolanda Gamp|How To Cake It|Cakes|Cake|Sugar Stars|How To Cake It By Yolanda|Buttercream|Vanilla Cake|Chocolate|Vanilla|Recipe|Chocolate Cake Recipe|Simple Syrup|back to school|satisfying cake|amazing cake decorating|cake style 2017|DIY cake|cake art|cake is a lie|portal|cake fails|funny|easy to make cakes,419346,19008,286,9662,https://i.ytimg.com/vi/PNPMEQm_vAI/default.jpg,04.10
fJiaYnmUw60,Jack Ryan - Teaser: The Reveal [HD] | Amazon Video,Amazon Video,24,Amazon|amazon prime|amazon video|amazon studios|original|trailer|episode|season|streaming|Amazon Original Series|Amazon instant video|Prime Video|Prime Instant Video|Jack Ryan|jack ryan|tom clancy|john krasinski|ryan|tom clancy (author)|american television actors|television program|hollywood|clancy|jack|jack ryan (character)|jack ryan krasinski,37461,189,20,51,https://i.ytimg.com/vi/fJiaYnmUw60/default.jpg,04.10
znX0DeVq72o,WATCH: Sarah Sanders discusses Las Vegas shooting at White House news briefing,PBS NewsHour,25,Donald Trump|White House|Sarah Huckabee Sanders|Las Vegas shooting|news briefing,52340,326,536,0,https://i.ytimg.com/vi/znX0DeVq72o/default.jpg,04.10
oSV39tYy3Xg,Bart Deurloo (NED) Interview / High Bar Crash - 2017 World Championships - Podium Training,GymCastic,17,gymnastics|podcast|radio|talk show|Bart Deurloo|Netherlands|high bar|crash|interview|world championships|montreal|gymcastic|podium training,15410,9,0,7,https://i.ytimg.com/vi/oSV39tYy3Xg/default.jpg,04.10
439iY0844xI,Aladdin Makes No Sense,SuperCarlinBrothers,22,SuperCarlinBrothers|aladdin|disney|disney aladdin|jasmine|disney princess|genie|robin williams|jafar|aladdin makes no sense|disney renaissance|super carlin brothers|j carlin|jonathan carlin|ben carlin|beauty and the beast makes no sense|abu|aladdin full movie|aladdin songs|a whole new world|prince ali|disney musical|live action aladdin|will smith|aladdin theory|cave of wonders|friend like me|aladin|aladdin (1992 disney film)|film analysis|walt disney,529542,18782,1273,3304,https://i.ytimg.com/vi/439iY0844xI/default.jpg,04.10
ENskipCo-eQ,한국 맥도날드 신 초콜릿 메뉴!?!,영국남자 Korean Englishman,23,Korean|영국남자|영국|조쉬|올리|Josh|Ollie|KoreanEnglish|English|Man|englishman|food|음식|외국인|반응|영상|웃긴|남자|외국|도전|매운,446306,7749,183,2142,https://i.ytimg.com/vi/ENskipCo-eQ/default.jpg,05.10
fJiaYnmUw60,Jack Ryan - Teaser: The Reveal [HD] | Amazon Video,Amazon Video,24,Amazon|amazon prime|amazon video|amazon studios|original|trailer|episode|season|streaming|Amazon Original Series|Amazon instant video|Prime Video|Prime Instant Video|Jack Ryan|jack ryan|tom clancy|john krasinski|ryan|tom clancy (author)|american television actors|television program|hollywood|clancy|jack|jack ryan (character)|jack ryan krasinski,75129,327,33,85,https://i.ytimg.com/vi/fJiaYnmUw60/default.jpg,05.10
PNPMEQm_vAI,How To Make A GIANT CAKE PUN PENCIL Out Of Chocolate CAKE! | Yolanda Gampp | How To Cake It,How To Cake It,26,Google|YouTube|Yolanda Gampp|Yolanda Gamp|How To Cake It|Cakes|Cake|Sugar Stars|How To Cake It By Yolanda|Buttercream|Vanilla Cake|Chocolate|Vanilla|Recipe|Chocolate Cake Recipe|Simple Syrup|back to school|satisfying cake|amazing cake decorating|cake style 2017|DIY cake|cake art|cake is a lie|portal|cake fails|funny|easy to make cakes,601814,23656,379,12153,https://i.ytimg.com/vi/PNPMEQm_vAI/default.jpg,05.10
znX0DeVq72o,WATCH: Sarah Sanders discusses Las Vegas shooting at White House news briefing,PBS NewsHour,25,Donald Trump|White House|Sarah Huckabee Sanders|Las Vegas shooting|news briefing,54223,333,552,0,https://i.ytimg.com/vi/znX0DeVq72o/default.jpg,05.10
oSV39tYy3Xg,Bart Deurloo (NED) Interview / High Bar Crash - 2017 World Championships - Podium Training,GymCastic,17,gymnastics|podcast|radio|talk show|Bart Deurloo|Netherlands|high bar|crash|interview|world championships|montreal|gymcastic|podium training,16730,11,0,7,https://i.ytimg.com/vi/oSV39tYy3Xg/default.jpg,05.10
odhMmAPDc54,Every Cat At 3AM,Gus Johnson,23,every cat at 3am|cat freakout|funny cat|gus|gustoonz|gus johnson|youtube haiku|reddit youtube haiku|new meme|cat meme|meme 2017|trending|youtube trending|viral video|trending video|advertiser friendly|gus youtube haiku|cat prank|crazy cats|cats compilation|cute cats|cat sketch|sketch comedy|gus johnson actor|gus cat|gus johnson cat,349302,17087,454,813,https://i.ytimg.com/vi/odhMmAPDc54/default.jpg,06.10
2iObySa91b0,Google Pixel 2 Impressions!,Marques Brownlee,28,pixel 2|google pixel 2|google pixel|madebygoogle|made by google|google phone|google pixel phone|pixel 2 xl|Pixel 2 XL|pixel 2 impressions|pixel 2 review|pixel 2 vs|google pixel 2 vs|google pixel 2 unboxing|google pixel 2 review|pixel 2 preview|pixel 2 camera,2051564,63141,1688,12087,https://i.ytimg.com/vi/2iObySa91b0/default.jpg,06.10
fJiaYnmUw60,Jack Ryan - Teaser: The Reveal [HD] | Amazon Video,Amazon Video,24,Amazon|amazon prime|amazon video|amazon studios|original|trailer|episode|season|streaming|Amazon Original Series|Amazon instant video|Prime Video|Prime Instant Video|Jack Ryan|jack ryan|tom clancy|john krasinski|ryan|tom clancy (author)|american television actors|television program|hollywood|clancy|jack|jack ryan (character)|jack ryan krasinski,93235,562,71,112,https://i.ytimg.com/vi/fJiaYnmUw60/default.jpg,06.10
ENskipCo-eQ,한국 맥도날드 신 초콜릿 메뉴!?!,영국남자 Korean Englishman,23,Korean|영국남자|영국|조쉬|올리|Josh|Ollie|KoreanEnglish|English|Man|englishman|food|음식|외국인|반응|영상|웃긴|남자|외국|도전|매운,597594,9101,233,2489,https://i.ytimg.com/vi/ENskipCo-eQ/default.jpg,06.10
PNPMEQm_vAI,How To Make A GIANT CAKE PUN PENCIL Out Of Chocolate CAKE! | Yolanda Gampp | How To Cake It,How To Cake It,26,Google|YouTube|Yolanda Gampp|Yolanda Gamp|How To Cake It|Cakes|Cake|Sugar Stars|How To Cake It By Yolanda|Buttercream|Vanilla Cake|Chocolate|Vanilla|Recipe|Chocolate Cake Recipe|Simple Syrup|back to school|satisfying cake|amazing cake decorating|cake style 2017|DIY cake|cake art|cake is a lie|portal|cake fails|funny|easy to make cakes,679124,25483,425,12984,https://i.ytimg.com/vi/PNPMEQm_vAI/default.jpg,06.10
Vpjp-CPHk_s,Kate Winslet Never Fancied Leonardo DiCaprio | Lorraine,Lorraine,24,lorraine|lorraine kelly|lorraine itv|lorraine interview|interview on lorraine|chat show|talk show|kate winslet|the mountain between us|titanic|leonardo dicaprio|oscar|bathroom|emma thompson,37649,147,7,0,https://i.ytimg.com/vi/Vpjp-CPHk_s/default.jpg,06.10
znX0DeVq72o,WATCH: Sarah Sanders discusses Las Vegas shooting at White House news briefing,PBS NewsHour,25,Donald Trump|White House|Sarah Huckabee Sanders|Las Vegas shooting|news briefing,54759,335,554,0,https://i.ytimg.com/vi/znX0DeVq72o/default.jpg,06.10
odhMmAPDc54,Every Cat At 3AM,Gus Johnson,23,every cat at 3am|cat freakout|funny cat|gus|gustoonz|gus johnson|youtube haiku|reddit youtube haiku|new meme|cat meme|meme 2017|trending|youtube trending|viral video|trending video|advertiser friendly|gus youtube haiku|cat prank|crazy cats|cats compilation|cute cats|cat sketch|sketch comedy|gus johnson actor|gus cat|gus johnson cat,751066,29670,1007,1769,https://i.ytimg.com/vi/odhMmAPDc54/default.jpg,07.10
2iObySa91b0,Google Pixel 2 Impressions!,Marques Brownlee,28,pixel 2|google pixel 2|google pixel|madebygoogle|made by google|google phone|google pixel phone|pixel 2 xl|Pixel 2 XL|pixel 2 impressions|pixel 2 review|pixel 2 vs|google pixel 2 vs|google pixel 2 unboxing|google pixel 2 review|pixel 2 preview|pixel 2 camera,2426245,68771,1935,12808,https://i.ytimg.com/vi/2iObySa91b0/default.jpg,07.10
QqbMpE4dPao,"Maroon 5, Julia Michaels - Help Me Out (Audio)",Maroon5VEVO,10,Maroon|Julia|Michaels|Help|Me|Out|222|Records/Interscope|Records|Pop,847355,52755,962,2597,https://i.ytimg.com/vi/QqbMpE4dPao/default.jpg,07.10
ENskipCo-eQ,한국 맥도날드 신 초콜릿 메뉴!?!,영국남자 Korean Englishman,23,Korean|영국남자|영국|조쉬|올리|Josh|Ollie|KoreanEnglish|English|Man|englishman|food|음식|외국인|반응|영상|웃긴|남자|외국|도전|매운,645693,9627,250,2602,https://i.ytimg.com/vi/ENskipCo-eQ/default.jpg,07.10
fJiaYnmUw60,Jack Ryan - Teaser: The Reveal [HD] | Amazon Video,Amazon Video,24,Amazon|amazon prime|amazon video|amazon studios|original|trailer|episode|season|streaming|Amazon Original Series|Amazon instant video|Prime Video|Prime Instant Video|Jack Ryan|jack ryan|tom clancy|john krasinski|ryan|tom clancy (author)|american television actors|television program|hollywood|clancy|jack|jack ryan (character)|jack ryan krasinski,100167,626,77,80,https://i.ytimg.com/vi/fJiaYnmUw60/default.jpg,07.10
PNPMEQm_vAI,How To Make A GIANT CAKE PUN PENCIL Out Of Chocolate CAKE! | Yolanda Gampp | How To Cake It,How To Cake It,26,Google|YouTube|Yolanda Gampp|Yolanda Gamp|How To Cake It|Cakes|Cake|Sugar Stars|How To Cake It By Yolanda|Buttercream|Vanilla Cake|Chocolate|Vanilla|Recipe|Chocolate Cake Recipe|Simple Syrup|back to school|satisfying cake|amazing cake decorating|cake style 2017|DIY cake|cake art|cake is a lie|portal|cake fails|funny|easy to make cakes,744019,26747,462,11826,https://i.ytimg.com/vi/PNPMEQm_vAI/default.jpg,07.10
ZFF392vAMN8,21 *ZERO EFFORT* DIY Halloween Costumes! Cute/Funny/Hot | Mylifeaseva,MyLifeAsEva,26,HALLOWEEN|2017|halloween costumes|diy halloween costumes|diy halloween|cute halloween costumes|laurdiy|niki and gabi|alisha marie|mylifeaseva|eva gutowski|funny halloween costumes|2017 halloween costumes|trending|hot halloween costume|easy halloween costume|diy costume|easy diy costume|halloween 2017|diy slime|wengie|quick diy|room diy|weylie|funny video|diy school|diy fall,1131977,69162,1957,8694,https://i.ytimg.com/vi/ZFF392vAMN8/default.jpg,08.10
odhMmAPDc54,Every Cat At 3AM,Gus Johnson,23,every cat at 3am|cat freakout|funny cat|gus|gustoonz|gus johnson|youtube haiku|reddit youtube haiku|new meme|cat meme|meme 2017|trending|youtube trending|viral video|trending video|advertiser friendly|gus youtube haiku|cat prank|crazy cats|cats compilation|cute cats|cat sketch|sketch comedy|gus johnson actor|gus cat|gus johnson cat,961835,36234,1249,2226,https://i.ytimg.com/vi/odhMmAPDc54/default.jpg,08.10
QqbMpE4dPao,"Maroon 5, Julia Michaels - Help Me Out (Audio)",Maroon5VEVO,10,Maroon|Julia|Michaels|Help|Me|Out|222|Records/Interscope|Records|Pop,1149528,60099,1140,2856,https://i.ytimg.com/vi/QqbMpE4dPao/default.jpg,08.10
FRjPEOPr6pA,New Orleans readies for storm surge from Hurricane Nate,CBS This Morning,25,video|cbs|news|new orleans|louisiana|hurricane nate|tropical storm|gulf coast|storm|flooding|weather forecast,5907,55,11,59,https://i.ytimg.com/vi/FRjPEOPr6pA/default.jpg,08.10
2iObySa91b0,Google Pixel 2 Impressions!,Marques Brownlee,28,pixel 2|google pixel 2|google pixel|madebygoogle|made by google|google phone|google pixel phone|pixel 2 xl|Pixel 2 XL|pixel 2 impressions|pixel 2 review|pixel 2 vs|google pixel 2 vs|google pixel 2 unboxing|google pixel 2 review|pixel 2 preview|pixel 2 camera,2623531,71183,2033,13177,https://i.ytimg.com/vi/2iObySa91b0/default.jpg,08.10
ENskipCo-eQ,한국 맥도날드 신 초콜릿 메뉴!?!,영국남자 Korean Englishman,23,Korean|영국남자|영국|조쉬|올리|Josh|Ollie|KoreanEnglish|English|Man|englishman|food|음식|외국인|반응|영상|웃긴|남자|외국|도전|매운,676586,9928,267,2696,https://i.ytimg.com/vi/ENskipCo-eQ/default.jpg,08.10
ZFF392vAMN8,21 *ZERO EFFORT* DIY Halloween Costumes! Cute/Funny/Hot | Mylifeaseva,MyLifeAsEva,26,HALLOWEEN|2017|halloween costumes|diy halloween costumes|diy halloween|cute halloween costumes|laurdiy|niki and gabi|alisha marie|mylifeaseva|eva gutowski|funny halloween costumes|2017 halloween costumes|trending|hot halloween costume|easy halloween costume|diy costume|easy diy costume|halloween 2017|diy slime|wengie|quick diy|room diy|weylie|funny video|diy school|diy fall,1403430,82893,2537,10174,https://i.ytimg.com/vi/ZFF392vAMN8/default.jpg,09.10
odhMmAPDc54,Every Cat At 3AM,Gus Johnson,23,every cat at 3am|cat freakout|funny cat|gus|gustoonz|gus johnson|youtube haiku|reddit youtube haiku|new meme|cat meme|meme 2017|trending|youtube trending|viral video|trending video|advertiser friendly|gus youtube haiku|cat prank|crazy cats|cats compilation|cute cats|cat sketch|sketch comedy|gus johnson actor|gus cat|gus johnson cat,1055334,38931,1341,2335,https://i.ytimg.com/vi/odhMmAPDc54/default.jpg,09.10
FRjPEOPr6pA,New Orleans readies for storm surge from Hurricane Nate,CBS This Morning,25,video|cbs|news|new orleans|louisiana|hurricane nate|tropical storm|gulf coast|storm|flooding|weather forecast,7198,57,15,66,https://i.ytimg.com/vi/FRjPEOPr6pA/default.jpg,09.10
QqbMpE4dPao,"Maroon 5, Julia Michaels - Help Me Out (Audio)",Maroon5VEVO,10,Maroon|Julia|Michaels|Help|Me|Out|222|Records/Interscope|Records|Pop,1360736,63953,1266,2501,https://i.ytimg.com/vi/QqbMpE4dPao/default.jpg,09.10
2iObySa91b0,Google Pixel 2 Impressions!,Marques Brownlee,28,pixel 2|google pixel 2|google pixel|madebygoogle|made by google|google phone|google pixel phone|pixel 2 xl|Pixel 2 XL|pixel 2 impressions|pixel 2 review|pixel 2 vs|google pixel 2 vs|google pixel 2 unboxing|google pixel 2 review|pixel 2 preview|pixel 2 camera,2784216,72959,2106,10958,https://i.ytimg.com/vi/2iObySa91b0/default.jpg,09.10
aircAruvnKk,"But what *is* a Neural Network? | Deep learning, Part 1",3Blue1Brown,27,Mathematics|three blue one brown|3 blue 1 brown|3b1b|neural networks|machines learning|deep learning,194566,13535,58,958,https://i.ytimg.com/vi/aircAruvnKk/default.jpg,09.10
ZFF392vAMN8,21 *ZERO EFFORT* DIY Halloween Costumes! Cute/Funny/Hot | Mylifeaseva,MyLifeAsEva,26,HALLOWEEN|2017|halloween costumes|diy halloween costumes|diy halloween|cute halloween costumes|laurdiy|niki and gabi|alisha marie|mylifeaseva|eva gutowski|funny halloween costumes|2017 halloween costumes|trending|hot halloween costume|easy halloween costume|diy costume|easy diy costume|halloween 2017|diy slime|wengie|quick diy|room diy|weylie|funny video|diy school|diy fall,1534489,88427,2746,10758,https://i.ytimg.com/vi/ZFF392vAMN8/default.jpg,10.10
odhMmAPDc54,Every Cat At 3AM,Gus Johnson,23,every cat at 3am|cat freakout|funny cat|gus|gustoonz|gus johnson|youtube haiku|reddit youtube haiku|new meme|cat meme|meme 2017|trending|youtube trending|viral video|trending video|advertiser friendly|gus youtube haiku|cat prank|crazy cats|cats compilation|cute cats|cat sketch|sketch comedy|gus johnson actor|gus cat|gus johnson cat,1101771,39808,1366,2370,https://i.ytimg.com/vi/odhMmAPDc54/default.jpg,10.10
FRjPEOPr6pA,New Orleans readies for storm surge from Hurricane Nate,CBS This Morning,25,video|cbs|news|new orleans|louisiana|hurricane nate|tropical storm|gulf coast|storm|flooding|weather forecast,7313,57,15,69,https://i.ytimg.com/vi/FRjPEOPr6pA/default.jpg,10.10
QqbMpE4dPao,"Maroon 5, Julia Michaels - Help Me Out (Audio)",Maroon5VEVO,10,Maroon|Julia|Michaels|Help|Me|Out|222|Records/Interscope|Records|Pop,1502709,66798,1356,2616,https://i.ytimg.com/vi/QqbMpE4dPao/default.jpg,10.10
DdTamlcP-3Y,OTHER MOTHER CORALINE HALLOWEEN MAKEUP TUTORIAL,Madeyewlook,26,Halloween|makeup tutorial|body painting|halloween makeup tutorial|halloween tutorial|special effects makeup|spfx makeup tutorial|special effects|prosthetic makeup|body paint illusion|other mother|coraline makeup|coraline makeup tutorial|other mother makeup tutorial|unmother|trending|halloween illusions|halloween transformation|cool halloween makeup,320190,22519,57,573,https://i.ytimg.com/vi/DdTamlcP-3Y/default.jpg,10.10
2iObySa91b0,Google Pixel 2 Impressions!,Marques Brownlee,28,pixel 2|google pixel 2|google pixel|madebygoogle|made by google|google phone|google pixel phone|pixel 2 xl|Pixel 2 XL|pixel 2 impressions|pixel 2 review|pixel 2 vs|google pixel 2 vs|google pixel 2 unboxing|google pixel 2 review|pixel 2 preview|pixel 2 camera,2911448,74375,2150,11223,https://i.ytimg.com/vi/2iObySa91b0/default.jpg,10.10
aircAruvnKk,"But what *is* a Neural Network? | Deep learning, Part 1",3Blue1Brown,27,Mathematics|three blue one brown|3 blue 1 brown|3b1b|neural networks|machines learning|deep learning,207431,14158,59,966,https://i.ytimg.com/vi/aircAruvnKk/default.jpg,10.10
hRRnKJwbrcw,Women of Late Night React to Harvey Weinstein's Apology,Late Night with Seth Meyers,23,Women|Late Night|react|Harvey Weinstein|apology|NBC|NBC TV|television|funny|talk show|comedy|humor|stand-up|parody|snl seth meyers|host|promo|seth|meyers|weekend update|news satire|satire|The Weinstein Company|Miramax|Bob Miramax|New York Times|Amber|Allie|Jenny,560844,6477,1444,1703,https://i.ytimg.com/vi/hRRnKJwbrcw/default.jpg,11.10
kB1hCteyEew,Charlie Puth Plays Coy About the Subject of His 'Attention',TheEllenShow,24,Charlie|Puth|Charlie Puth|attention|attention lyrics|charlie puth songs|Ellen|degeneres|ellen degeneres|the ellen show|ellen fans|ellen tickets|ellentube|ellen audience,137104,4813,81,449,https://i.ytimg.com/vi/kB1hCteyEew/default.jpg,11.10
3JYl1XREYLE,TASTING EXTREMELY BIZARRE POCKY FLAVORS!,DavidParody,23,taste test|food taste test|weird flavors|bizarre flavors|food taste test pocky|pocky flavors|pocky|pocky taste test|food davidparody|food vlog|food taste vlog|vlog|tasting weird food|trying weird food|davidparody|davidparody food|extremly weird food|pg rating|trending|kid friendly|family friendly,320964,16342,628,2813,https://i.ytimg.com/vi/3JYl1XREYLE/default.jpg,11.10
bkxoHhafkqQ,How To Make A PUMPKIN SPICE LATTE CAKE With COFFEE BUTTERCREAM | Yolanda Gampp | How To Cake It,How To Cake It,26,Google|YouTube|Yolanda Gampp|Yolanda Gamp|How To Cake It|Cakes|Cake|Sugar Stars|How To Cake It By Yolanda|Buttercream|Vanilla Cake|Chocolate|Vanilla|Recipe|Chocolate Cake Recipe|Simple Syrup|cake art|funny|pumpkin spice latte cake|starbucks|starbucks cake|coffee cake|pumpkin spice cake|coffee buttercream|amazing cake decorations|satisfying cake decorating|cake decorating 2017|best new cakes|cakebook|grenada|cupcakes|DIY cake,331847,19026,139,1846,https://i.ytimg.com/vi/bkxoHhafkqQ/default.jpg,11.10
y_nuMEtwUW4,Mike Leach Goes Off: Expand the College Football Playoff,KREM2,22,College Football|Football|Sports|Pac-12|Washington State University|WSU|Cougs|Go Cougs|Mike Leach|Leach|College Football Playoff|NCAA|Cougars|Wazzu|SEC|Big Ten|Big XII|Big 12|ACC|Pullman|Washington,13854,48,0,11,https://i.ytimg.com/vi/y_nuMEtwUW4/default.jpg,11.10
_ghJa9vhvSI,How This Guy Built a DIY Space Suit | WIRED,WIRED,28,space suit|space|nasa|moon|mars|the martian|apollo 11|astronaut|cosmonaut|balloon|high altitude|altitude|altitude records|diy space suit|cameron smith|homemade space suit|spacesuit|space travel|anthropology|homemade|home made|diy|wired|tech|wired.com|technology,23350,1073,18,158,https://i.ytimg.com/vi/_ghJa9vhvSI/default.jpg,11.10
ZFF392vAMN8,21 *ZERO EFFORT* DIY Halloween Costumes! Cute/Funny/Hot | Mylifeaseva,MyLifeAsEva,26,HALLOWEEN|2017|halloween costumes|diy halloween costumes|diy halloween|cute halloween costumes|laurdiy|niki and gabi|alisha marie|mylifeaseva|eva gutowski|funny halloween costumes|2017 halloween costumes|trending|hot halloween costume|easy halloween costume|diy costume|easy diy costume|halloween 2017|diy slime|wengie|quick diy|room diy|weylie|funny video|diy school|diy fall,1634633,93137,2860,11312,https://i.ytimg.com/vi/ZFF392vAMN8/default.jpg,11.10
odhMmAPDc54,Every Cat At 3AM,Gus Johnson,23,every cat at 3am|cat freakout|funny cat|gus|gustoonz|gus johnson|youtube haiku|reddit youtube haiku|new meme|cat meme|meme 2017|trending|youtube trending|viral video|trending video|advertiser friendly|gus youtube haiku|cat prank|crazy cats|cats compilation|cute cats|cat sketch|sketch comedy|gus johnson actor|gus cat|gus johnson cat,1133263,40466,1390,2383,https://i.ytimg.com/vi/odhMmAPDc54/default.jpg,11.10
FRjPEOPr6pA,New Orleans readies for storm surge from Hurricane Nate,CBS This Morning,25,video|cbs|news|new orleans|louisiana|hurricane nate|tropical storm|gulf coast|storm|flooding|weather forecast,7374,56,15,70,https://i.ytimg.com/vi/FRjPEOPr6pA/default.jpg,11.10
QqbMpE4dPao,"Maroon 5, Julia Michaels - Help Me Out (Audio)",Maroon5VEVO,10,Maroon|Julia|Michaels|Help|Me|Out|222|Records/Interscope|Records|Pop,1632518,68893,1419,2691,https://i.ytimg.com/vi/QqbMpE4dPao/default.jpg,11.10
3JYl1XREYLE,TASTING EXTREMELY BIZARRE POCKY FLAVORS!,DavidParody,23,taste test|food taste test|weird flavors|bizarre flavors|food taste test pocky|pocky flavors|pocky|pocky taste test|food davidparody|food vlog|food taste vlog|vlog|tasting weird food|trying weird food|davidparody|davidparody food|extremly weird food|pg rating|trending|kid friendly|family friendly,353444,17323,701,2893,https://i.ytimg.com/vi/3JYl1XREYLE/default.jpg,12.10
bkxoHhafkqQ,How To Make A PUMPKIN SPICE LATTE CAKE With COFFEE BUTTERCREAM | Yolanda Gampp | How To Cake It,How To Cake It,26,Google|YouTube|Yolanda Gampp|Yolanda Gamp|How To Cake It|Cakes|Cake|Sugar Stars|How To Cake It By Yolanda|Buttercream|Vanilla Cake|Chocolate|Vanilla|Recipe|Chocolate Cake Recipe|Simple Syrup|cake art|funny|pumpkin spice latte cake|starbucks|starbucks cake|coffee cake|pumpkin spice cake|coffee buttercream|amazing cake decorations|satisfying cake decorating|cake decorating 2017|best new cakes|cakebook|grenada|cupcakes|DIY cake,481412,24011,205,2251,https://i.ytimg.com/vi/bkxoHhafkqQ/default.jpg,12.10
SpMhnqnbh0g,My Friend Dahmer - Official Trailer (US) - FilmRise,FilmRise Releasing,24,ross lynch|derf backderf|alex wolff|jeffrey dahmer|marc meyers|myfrienddahmer|dahmer,84538,1005,6,136,https://i.ytimg.com/vi/SpMhnqnbh0g/default.jpg,12.10
y_nuMEtwUW4,Mike Leach Goes Off: Expand the College Football Playoff,KREM2,22,College Football|Football|Sports|Pac-12|Washington State University|WSU|Cougs|Go Cougs|Mike Leach|Leach|College Football Playoff|NCAA|Cougars|Wazzu|SEC|Big Ten|Big XII|Big 12|ACC|Pullman|Washington,19944,69,0,24,https://i.ytimg.com/vi/y_nuMEtwUW4/default.jpg,12.10
mvuN2LQf09o,Prince Harry and Michael Fallon unveil MOD mental health initiative,The Royal Family Channel,25,harry|prince harry|mod|michael fallon|mental health|armed forces,4961,151,6,19,https://i.ytimg.com/vi/mvuN2LQf09o/default.jpg,12.10
QKgUwKuhQmo,Get a Royal Ride Through the Streets of NYC | PDA with Ben Aaron,SoulPancake,24,soulpancake|soulpancake channel|soul pancake|rainn wilson|kid president|kid president pep talk|clouds by zach sobiech|how to|tutorial|review|workout|inspirational|pda|public displays of affection|royal ride|uber|lyft|taxi|ben aaron|nbc|street stunt|egyptian|carry me|buff guys|gym bros|hot guys,10729,277,11,30,https://i.ytimg.com/vi/QKgUwKuhQmo/default.jpg,12.10
odhMmAPDc54,Every Cat At 3AM,Gus Johnson,23,every cat at 3am|cat freakout|funny cat|gus|gustoonz|gus johnson|youtube haiku|reddit youtube haiku|new meme|cat meme|meme 2017|trending|youtube trending|viral video|trending video|advertiser friendly|gus youtube haiku|cat prank|crazy cats|cats compilation|cute cats|cat sketch|sketch comedy|gus johnson actor|gus cat|gus johnson cat,1159836,41168,1411,2424,https://i.ytimg.com/vi/odhMmAPDc54/default.jpg,12.10
FRjPEOPr6pA,New Orleans readies for storm surge from Hurricane Nate,CBS This Morning,25,video|cbs|news|new orleans|louisiana|hurricane nate|tropical storm|gulf coast|storm|flooding|weather forecast,7386,56,15,69,https://i.ytimg.com/vi/FRjPEOPr6pA/default.jpg,12.10
QrNk6lHyDbk,Box of Lies with Margot Robbie,The Tonight Show Starring Jimmy Fallon,23,The Tonight Show|Jimmy Fallon|Box of Lies|Margot Robbie|NBC|NBC TV|Television|Funny|Talk Show|comedic|humor|snl|Fallon Stand-up|Fallon monologue|tonight|show|jokes|funny video|interview|variety|comedy sketches|talent|celebrities|video|clip|highlight|games with guests|The Wolf of Wall Street|Suicide Squad|Harley Quinn|Focus,1109607,19554,482,1040,https://i.ytimg.com/vi/QrNk6lHyDbk/default.jpg,13.10
a6Zj09zFXbI,How to Get Your Face Through Halloween- Skincare Routine,Glam&Gore,22,How to Get Your Face Through Halloween- Makeup Removal & Skincare Routine|Makeup Removal & Skincare Routine|skincare routine|skincare routine mykie|skincare routine glam&g|skincare routine glam and g|glam and g|glam&g|remove halloween makeup|halloween makeup remover|halloween makeup|clinque|sunday riley|ufo oil|orange blossom toner|total moisture benefit|benefit|skincare tips|skincare advice|personal skincare routine,228101,17322,100,1672,https://i.ytimg.com/vi/a6Zj09zFXbI/default.jpg,13.10
SpMhnqnbh0g,My Friend Dahmer - Official Trailer (US) - FilmRise,FilmRise Releasing,24,ross lynch|derf backderf|alex wolff|jeffrey dahmer|marc meyers|myfrienddahmer|dahmer,149669,1136,6,148,https://i.ytimg.com/vi/SpMhnqnbh0g/default.jpg,13.10
bkxoHhafkqQ,How To Make A PUMPKIN SPICE LATTE CAKE With COFFEE BUTTERCREAM | Yolanda Gampp | How To Cake It,How To Cake It,26,Google|YouTube|Yolanda Gampp|Yolanda Gamp|How To Cake It|Cakes|Cake|Sugar Stars|How To Cake It By Yolanda|Buttercream|Vanilla Cake|Chocolate|Vanilla|Recipe|Chocolate Cake Recipe|Simple Syrup|cake art|funny|pumpkin spice latte cake|starbucks|starbucks cake|coffee cake|pumpkin spice cake|coffee buttercream|amazing cake decorations|satisfying cake decorating|cake decorating 2017|best new cakes|cakebook|grenada|cupcakes|DIY cake,539203,25812,218,2438,https://i.ytimg.com/vi/bkxoHhafkqQ/default.jpg,13.10
3JYl1XREYLE,TASTING EXTREMELY BIZARRE POCKY FLAVORS!,DavidParody,23,taste test|food taste test|weird flavors|bizarre flavors|food taste test pocky|pocky flavors|pocky|pocky taste test|food davidparody|food vlog|food taste vlog|vlog|tasting weird food|trying weird food|davidparody|davidparody food|extremly weird food|pg rating|trending|kid friendly|family friendly,366650,17743,708,2998,https://i.ytimg.com/vi/3JYl1XREYLE/default.jpg,13.10
5al17hlhowA,Boyfriend Buys My Outfits | Grav3yardgirl,grav3yardgirl,26,beauty|how to|makeup|howto|style|fashion|new|clothes|clothing|bunny|hair|infomercials|infomercial|work|does it work|easy|fast|commercial|funny|strange|grav3yardgirl|best|favorite|review|random|as seen on tv|toy|kids|just for fun|wubble bubble|toys|new kids toys|water balloons|does this thing really work|flawless hair remover|flawless finish|gucci|boyfriend buys girlfriend clothes|boyfriend buys girlfriend outfits|boyfriend|girlfriend,417189,33214,345,6216,https://i.ytimg.com/vi/5al17hlhowA/default.jpg,13.10
y_nuMEtwUW4,Mike Leach Goes Off: Expand the College Football Playoff,KREM2,22,College Football|Football|Sports|Pac-12|Washington State University|WSU|Cougs|Go Cougs|Mike Leach|Leach|College Football Playoff|NCAA|Cougars|Wazzu|SEC|Big Ten|Big XII|Big 12|ACC|Pullman|Washington,22543,81,0,39,https://i.ytimg.com/vi/y_nuMEtwUW4/default.jpg,13.10
a6Zj09zFXbI,How to Get Your Face Through Halloween- Skincare Routine,Glam&Gore,22,How to Get Your Face Through Halloween- Makeup Removal & Skincare Routine|Makeup Removal & Skincare Routine|skincare routine|skincare routine mykie|skincare routine glam&g|skincare routine glam and g|glam and g|glam&g|remove halloween makeup|halloween makeup remover|halloween makeup|clinque|sunday riley|ufo oil|orange blossom toner|total moisture benefit|benefit|skincare tips|skincare advice|personal skincare routine,246230,18245,107,1739,https://i.ytimg.com/vi/a6Zj09zFXbI/default.jpg,14.10
J_qs-CH715g,Part 2 of Riverdale Season 2 Q&A | Madelaine Petsch,Madelaine Petsch,22,madelaine|madelainepetsch|madelaine petsch|petsch|cheryl|blossom|cherylblossom|cheryl blossom|riverdale,115929,10771,16,839,https://i.ytimg.com/vi/J_qs-CH715g/default.jpg,14.10
SpMhnqnbh0g,My Friend Dahmer - Official Trailer (US) - FilmRise,FilmRise Releasing,24,ross lynch|derf backderf|alex wolff|jeffrey dahmer|marc meyers|myfrienddahmer|dahmer,174248,1213,8,152,https://i.ytimg.com/vi/SpMhnqnbh0g/default.jpg,14.10
bkxoHhafkqQ,How To Make A PUMPKIN SPICE LATTE CAKE With COFFEE BUTTERCREAM | Yolanda Gampp | How To Cake It,How To Cake It,26,Google|YouTube|Yolanda Gampp|Yolanda Gamp|How To Cake It|Cakes|Cake|Sugar Stars|How To Cake It By Yolanda|Buttercream|Vanilla Cake|Chocolate|Vanilla|Recipe|Chocolate Cake Recipe|Simple Syrup|cake art|funny|pumpkin spice latte cake|starbucks|starbucks cake|coffee cake|pumpkin spice cake|coffee buttercream|amazing cake decorations|satisfying cake decorating|cake decorating 2017|best new cakes|cakebook|grenada|cupcakes|DIY cake,587362,27076,234,2554,https://i.ytimg.com/vi/bkxoHhafkqQ/default.jpg,14.10
3JYl1XREYLE,TASTING EXTREMELY BIZARRE POCKY FLAVORS!,DavidParody,23,taste test|food taste test|weird flavors|bizarre flavors|food taste test pocky|pocky flavors|pocky|pocky taste test|food davidparody|food vlog|food taste vlog|vlog|tasting weird food|trying weird food|davidparody|davidparody food|extremly weird food|pg rating|trending|kid friendly|family friendly,378726,18140,713,3066,https://i.ytimg.com/vi/3JYl1XREYLE/default.jpg,14.10
5al17hlhowA,Boyfriend Buys My Outfits | Grav3yardgirl,grav3yardgirl,26,beauty|how to|makeup|howto|style|fashion|new|clothes|clothing|bunny|hair|infomercials|infomercial|work|does it work|easy|fast|commercial|funny|strange|grav3yardgirl|best|favorite|review|random|as seen on tv|toy|kids|just for fun|wubble bubble|toys|new kids toys|water balloons|does this thing really work|flawless hair remover|flawless finish|gucci|boyfriend buys girlfriend clothes|boyfriend buys girlfriend outfits|boyfriend|girlfriend,429686,33915,358,6287,https://i.ytimg.com/vi/5al17hlhowA/default.jpg,14.10
y_nuMEtwUW4,Mike Leach Goes Off: Expand the College Football Playoff,KREM2,22,College Football|Football|Sports|Pac-12|Washington State University|WSU|Cougs|Go Cougs|Mike Leach|Leach|College Football Playoff|NCAA|Cougars|Wazzu|SEC|Big Ten|Big XII|Big 12|ACC|Pullman|Washington,25399,98,0,49,https://i.ytimg.com/vi/y_nuMEtwUW4/default.jpg,14.10
BHD3uqfbcRQ,How To Make Sausage with Brad | It's Alive | Bon Appétit,Bon Appétit,26,sausage|sausage making|hot dogs|meat|portland|oregon|olympia provisions|it's alive|brad|brad leone|fermentation|test kitchen|make|ferment|emulsify|sausage stuffer|pork|sausages|casing|sausage casing|sausage factory|sausage party|sausage filling|how to make a sausage|how to sausage|making sausage|brad and vinny|pork sausage|sausage links|artisan|artisinal|recipes|recipe|cook|how-to|technique|kitchen|food|cuisine|bon appetit|bon appétit,171739,5137,106,593,https://i.ytimg.com/vi/BHD3uqfbcRQ/default.jpg,15.10
a6Zj09zFXbI,How to Get Your Face Through Halloween- Skincare Routine,Glam&Gore,22,How to Get Your Face Through Halloween- Makeup Removal & Skincare Routine|Makeup Removal & Skincare Routine|skincare routine|skincare routine mykie|skincare routine glam&g|skincare routine glam and g|glam and g|glam&g|remove halloween makeup|halloween makeup remover|halloween makeup|clinque|sunday riley|ufo oil|orange blossom toner|total moisture benefit|benefit|skincare tips|skincare advice|personal skincare routine,256479,18751,109,1747,https://i.ytimg.com/vi/a6Zj09zFXbI/default.jpg,15.10
J_qs-CH715g,Part 2 of Riverdale Season 2 Q&A | Madelaine Petsch,Madelaine Petsch,22,madelaine|madelainepetsch|madelaine petsch|petsch|cheryl|blossom|cherylblossom|cheryl blossom|riverdale,126642,11577,19,857,https://i.ytimg.com/vi/J_qs-CH715g/default.jpg,15.10
QtVL76gh09U,$3 Ramen Vs. $79 Ramen • Japan,BuzzFeedVideo,22,ramen|worth it|japan|steven lim|adam bianchi|andrew illnyckj|buzzfeed|$$$|cheap vs. expensive|buzzfeed video|wig|noodles|soup|food|foodie|best|worst|cheap|expensive|taste|taste test|wi3|buzzfeedvideo|cheap vs expensive|buzzfeed worth it|buzzfeed andrew|buzzfeed steven|ben coleman|high vs low|cameraguy|experience|travel review|steven|buzzfeed adam|andrew ilnyckyj|travel|andrew|foodies|andrew ilnyckyi|$ vs $$$,3844055,118156,2865,16915,https://i.ytimg.com/vi/QtVL76gh09U/default.jpg,16.10
BHD3uqfbcRQ,How To Make Sausage with Brad | It's Alive | Bon Appétit,Bon Appétit,26,sausage|sausage making|hot dogs|meat|portland|oregon|olympia provisions|it's alive|brad|brad leone|fermentation|test kitchen|make|ferment|emulsify|sausage stuffer|pork|sausages|casing|sausage casing|sausage factory|sausage party|sausage filling|how to make a sausage|how to sausage|making sausage|brad and vinny|pork sausage|sausage links|artisan|artisinal|recipes|recipe|cook|how-to|technique|kitchen|food|cuisine|bon appetit|bon appétit,180690,5315,108,607,https://i.ytimg.com/vi/BHD3uqfbcRQ/default.jpg,16.10
a6Zj09zFXbI,How to Get Your Face Through Halloween- Skincare Routine,Glam&Gore,22,How to Get Your Face Through Halloween- Makeup Removal & Skincare Routine|Makeup Removal & Skincare Routine|skincare routine|skincare routine mykie|skincare routine glam&g|skincare routine glam and g|glam and g|glam&g|remove halloween makeup|halloween makeup remover|halloween makeup|clinque|sunday riley|ufo oil|orange blossom toner|total moisture benefit|benefit|skincare tips|skincare advice|personal skincare routine,265920,19192,112,1781,https://i.ytimg.com/vi/a6Zj09zFXbI/default.jpg,16.10
J_qs-CH715g,Part 2 of Riverdale Season 2 Q&A | Madelaine Petsch,Madelaine Petsch,22,madelaine|madelainepetsch|madelaine petsch|petsch|cheryl|blossom|cherylblossom|cheryl blossom|riverdale,133637,12070,19,877,https://i.ytimg.com/vi/J_qs-CH715g/default.jpg,16.10
Ef93WmlEho0,Why California's Musical Road Sounds Terrible,Tom Scott,27,tom scott|tomscott|amazing places|musical road|lancaster|lancaster ca|rossini|william tell overture,553096,23471,390,1585,https://i.ytimg.com/vi/Ef93WmlEho0/default.jpg,17.10
QtVL76gh09U,$3 Ramen Vs. $79 Ramen • Japan,BuzzFeedVideo,22,ramen|worth it|japan|steven lim|adam bianchi|andrew illnyckj|buzzfeed|$$$|cheap vs. expensive|buzzfeed video|wig|noodles|soup|food|foodie|best|worst|cheap|expensive|taste|taste test|wi3|buzzfeedvideo|cheap vs expensive|buzzfeed worth it|buzzfeed andrew|buzzfeed steven|ben coleman|high vs low|cameraguy|experience|travel review|steven|buzzfeed adam|andrew ilnyckyj|travel|andrew|foodies|andrew ilnyckyi|$ vs $$$,5895887,150093,4727,20817,https://i.ytimg.com/vi/QtVL76gh09U/default.jpg,17.10
exuhr8R2AHw,More evacuations in Northern California as wildfires kill 40,ABC News,25,evacuations|Nothern California|wildfire|40 killed|Firefighters|16 large wildfire|ABC|ABC NEWS|GMA,17846,298,22,248,https://i.ytimg.com/vi/exuhr8R2AHw/default.jpg,17.10
x2l1vZ9dvAE,Sticker Factory | Stoned Mode,Super Deluxe,24,super deluxe (tv network)|super deluxe|super deluxe channel|super deluxe original|sticker|stickers|sticker factory|factory|how it's made|rainbow|rainbows|unicorns|hearts|cool|stoned mode|trippy|aesthetic|interesting|behind the scenes|sticker collection|how to make a sticker|glitter,23616,909,17,118,https://i.ytimg.com/vi/x2l1vZ9dvAE/default.jpg,17.10
BHD3uqfbcRQ,How To Make Sausage with Brad | It's Alive | Bon Appétit,Bon Appétit,26,sausage|sausage making|hot dogs|meat|portland|oregon|olympia provisions|it's alive|brad|brad leone|fermentation|test kitchen|make|ferment|emulsify|sausage stuffer|pork|sausages|casing|sausage casing|sausage factory|sausage party|sausage filling|how to make a sausage|how to sausage|making sausage|brad and vinny|pork sausage|sausage links|artisan|artisinal|recipes|recipe|cook|how-to|technique|kitchen|food|cuisine|bon appetit|bon appétit,186275,5405,109,612,https://i.ytimg.com/vi/BHD3uqfbcRQ/default.jpg,17.10
a6Zj09zFXbI,How to Get Your Face Through Halloween- Skincare Routine,Glam&Gore,22,How to Get Your Face Through Halloween- Makeup Removal & Skincare Routine|Makeup Removal & Skincare Routine|skincare routine|skincare routine mykie|skincare routine glam&g|skincare routine glam and g|glam and g|glam&g|remove halloween makeup|halloween makeup remover|halloween makeup|clinque|sunday riley|ufo oil|orange blossom toner|total moisture benefit|benefit|skincare tips|skincare advice|personal skincare routine,271391,19452,114,1807,https://i.ytimg.com/vi/a6Zj09zFXbI/default.jpg,17.10
Ef93WmlEho0,Why California's Musical Road Sounds Terrible,Tom Scott,27,tom scott|tomscott|amazing places|musical road|lancaster|lancaster ca|rossini|william tell overture,1037456,32492,715,2268,https://i.ytimg.com/vi/Ef93WmlEho0/default.jpg,18.10
QtVL76gh09U,$3 Ramen Vs. $79 Ramen • Japan,BuzzFeedVideo,22,ramen|worth it|japan|steven lim|adam bianchi|andrew illnyckj|buzzfeed|$$$|cheap vs. expensive|buzzfeed video|wig|noodles|soup|food|foodie|best|worst|cheap|expensive|taste|taste test|wi3|buzzfeedvideo|cheap vs expensive|buzzfeed worth it|buzzfeed andrew|buzzfeed steven|ben coleman|high vs low|cameraguy|experience|travel review|steven|buzzfeed adam|andrew ilnyckyj|travel|andrew|foodies|andrew ilnyckyi|$ vs $$$,6576053,157321,5195,21705,https://i.ytimg.com/vi/QtVL76gh09U/default.jpg,18.10
cLPgQ9kPpFM,Video of Storm Ophelia in Ireland,Washington Post,25,Washington Post YouTube|Washington Post Video|WaPo Video|The Washington Post|News|ophelia|ireland|storm ophelia|ireland hurricane|ireland storms,6321,12,0,8,https://i.ytimg.com/vi/cLPgQ9kPpFM/default.jpg,18.10
exuhr8R2AHw,More evacuations in Northern California as wildfires kill 40,ABC News,25,evacuations|Nothern California|wildfire|40 killed|Firefighters|16 large wildfire|ABC|ABC NEWS|GMA,23215,308,23,329,https://i.ytimg.com/vi/exuhr8R2AHw/default.jpg,18.10
x2l1vZ9dvAE,Sticker Factory | Stoned Mode,Super Deluxe,24,super deluxe (tv network)|super deluxe|super deluxe channel|super deluxe original|sticker|stickers|sticker factory|factory|how it's made|rainbow|rainbows|unicorns|hearts|cool|stoned mode|trippy|aesthetic|interesting|behind the scenes|sticker collection|how to make a sticker|glitter,28085,1026,17,131,https://i.ytimg.com/vi/x2l1vZ9dvAE/default.jpg,18.10
BHD3uqfbcRQ,How To Make Sausage with Brad | It's Alive | Bon Appétit,Bon Appétit,26,sausage|sausage making|hot dogs|meat|portland|oregon|olympia provisions|it's alive|brad|brad leone|fermentation|test kitchen|make|ferment|emulsify|sausage stuffer|pork|sausages|casing|sausage casing|sausage factory|sausage party|sausage filling|how to make a sausage|how to sausage|making sausage|brad and vinny|pork sausage|sausage links|artisan|artisinal|recipes|recipe|cook|how-to|technique|kitchen|food|cuisine|bon appetit|bon appétit,189914,5483,109,615,https://i.ytimg.com/vi/BHD3uqfbcRQ/default.jpg,18.10
Ef93WmlEho0,Why California's Musical Road Sounds Terrible,Tom Scott,27,tom scott|tomscott|amazing places|musical road|lancaster|lancaster ca|rossini|william tell overture,1361159,41387,1032,2935,https://i.ytimg.com/vi/Ef93WmlEho0/default.jpg,19.10
QtVL76gh09U,$3 Ramen Vs. $79 Ramen • Japan,BuzzFeedVideo,22,ramen|worth it|japan|steven lim|adam bianchi|andrew illnyckj|buzzfeed|$$$|cheap vs. expensive|buzzfeed video|wig|noodles|soup|food|foodie|best|worst|cheap|expensive|taste|taste test|wi3|buzzfeedvideo|cheap vs expensive|buzzfeed worth it|buzzfeed andrew|buzzfeed steven|ben coleman|high vs low|cameraguy|experience|travel review|steven|buzzfeed adam|andrew ilnyckyj|travel|andrew|foodies|andrew ilnyckyi|$ vs $$$,6930667,161904,5408,22207,https://i.ytimg.com/vi/QtVL76gh09U/default.jpg,19.10
cLPgQ9kPpFM,Video of Storm Ophelia in Ireland,Washington Post,25,Washington Post YouTube|Washington Post Video|WaPo Video|The Washington Post|News|ophelia|ireland|storm ophelia|ireland hurricane|ireland storms,7603,12,0,11,https://i.ytimg.com/vi/cLPgQ9kPpFM/default.jpg,19.10
bJW2678K3XE,How To Wear Halloween Makeup Every Day | Beauty With Mi | Refinery29,Refinery29,26,refinery29|refinery 29|r29|r29 video|refinery29 video|female|empowerment|halloween|products|everyday look|makeup|cosmetics|face paint|beauty with mi|mi anne chan|refinery29 beauty|halloween episode|full face|halloween face makeup|how to|we try|tested|halloween looks|halloween makeup|challenge|tutorial|halloween store|party store|everyday makeup look|beauty|beauty products|beauty trends|beauty transformations|halloween makeup tutorial|drugstore makeup,17418,441,25,44,https://i.ytimg.com/vi/bJW2678K3XE/default.jpg,19.10
exuhr8R2AHw,More evacuations in Northern California as wildfires kill 40,ABC News,25,evacuations|Nothern California|wildfire|40 killed|Firefighters|16 large wildfire|ABC|ABC NEWS|GMA,23650,308,23,333,https://i.ytimg.com/vi/exuhr8R2AHw/default.jpg,19.10
x2l1vZ9dvAE,Sticker Factory | Stoned Mode,Super Deluxe,24,super deluxe (tv network)|super deluxe|super deluxe channel|super deluxe original|sticker|stickers|sticker factory|factory|how it's made|rainbow|rainbows|unicorns|hearts|cool|stoned mode|trippy|aesthetic|interesting|behind the scenes|sticker collection|how to make a sticker|glitter,29995,1071,20,137,https://i.ytimg.com/vi/x2l1vZ9dvAE/default.jpg,19.10
GT0L3RWQNjw,Nintendo Switch - Video Capture,Nintendo,20,nintendo|play|play nintendo|game|gameplay|fun|video game|kids|action|adventure|rpg|nintendo switch|joy con|pro controller|update|nintendo switch capture|nintendo switch video capture|video capture|nintendo switch video|album|archive|screenshot|trim|social media|zelda|legend of zelda|breath of the wild|legend of zelda breath of the wild|system update|version 4.0|gameplay capture|record|record gameplay|how to|how to series|nintendo switch how to,343558,19393,458,5010,https://i.ytimg.com/vi/GT0L3RWQNjw/default.jpg,20.10
Ef93WmlEho0,Why California's Musical Road Sounds Terrible,Tom Scott,27,tom scott|tomscott|amazing places|musical road|lancaster|lancaster ca|rossini|william tell overture,1799524,49810,1332,3512,https://i.ytimg.com/vi/Ef93WmlEho0/default.jpg,20.10
thUp8jTeJ9Q,I Bought A $500 'LUXURY' Mystery Box from Ebay- OMG WHY,grav3yardgirl,26,beauty|how to|makeup|howto|style|fashion|summer|spring|new|clothes|clothing|bunny|2017|vlogoween|vlogoween 2017|opening mystery ebay boxes|mystery ebay|ebay|mystery boxes|unboxing|luxury|ysl|dior|chanel|marc jacobs|la mer,1160115,34759,1967,5491,https://i.ytimg.com/vi/thUp8jTeJ9Q/default.jpg,20.10
QtVL76gh09U,$3 Ramen Vs. $79 Ramen • Japan,BuzzFeedVideo,22,ramen|worth it|japan|steven lim|adam bianchi|andrew illnyckj|buzzfeed|$$$|cheap vs. expensive|buzzfeed video|wig|noodles|soup|food|foodie|best|worst|cheap|expensive|taste|taste test|wi3|buzzfeedvideo|cheap vs expensive|buzzfeed worth it|buzzfeed andrew|buzzfeed steven|ben coleman|high vs low|cameraguy|experience|travel review|steven|buzzfeed adam|andrew ilnyckyj|travel|andrew|foodies|andrew ilnyckyi|$ vs $$$,7247085,166096,5618,15670,https://i.ytimg.com/vi/QtVL76gh09U/default.jpg,20.10
cLPgQ9kPpFM,Video of Storm Ophelia in Ireland,Washington Post,25,Washington Post YouTube|Washington Post Video|WaPo Video|The Washington Post|News|ophelia|ireland|storm ophelia|ireland hurricane|ireland storms,8044,12,0,8,https://i.ytimg.com/vi/cLPgQ9kPpFM/default.jpg,20.10
bJW2678K3XE,How To Wear Halloween Makeup Every Day | Beauty With Mi | Refinery29,Refinery29,26,refinery29|refinery 29|r29|r29 video|refinery29 video|female|empowerment|halloween|products|everyday look|makeup|cosmetics|face paint|beauty with mi|mi anne chan|refinery29 beauty|halloween episode|full face|halloween face makeup|how to|we try|tested|halloween looks|halloween makeup|challenge|tutorial|halloween store|party store|everyday makeup look|beauty|beauty products|beauty trends|beauty transformations|halloween makeup tutorial|drugstore makeup,18101,451,26,41,https://i.ytimg.com/vi/bJW2678K3XE/default.jpg,20.10
exuhr8R2AHw,More evacuations in Northern California as wildfires kill 40,ABC News,25,evacuations|Nothern California|wildfire|40 killed|Firefighters|16 large wildfire|ABC|ABC NEWS|GMA,23869,310,23,333,https://i.ytimg.com/vi/exuhr8R2AHw/default.jpg,20.10
KJboCFa4iVQ,The genius of Leonardo da Vinci,CBS Sunday Morning,25,CBS Sunday Morning|CBS News|news|On The Road|Leonardo da vinci|mona lisa|the last supper|art,11750,172,5,13,https://i.ytimg.com/vi/KJboCFa4iVQ/default.jpg,20.10
x2l1vZ9dvAE,Sticker Factory | Stoned Mode,Super Deluxe,24,super deluxe (tv network)|super deluxe|super deluxe channel|super deluxe original|sticker|stickers|sticker factory|factory|how it's made|rainbow|rainbows|unicorns|hearts|cool|stoned mode|trippy|aesthetic|interesting|behind the scenes|sticker collection|how to make a sticker|glitter,31116,1085,21,118,https://i.ytimg.com/vi/x2l1vZ9dvAE/default.jpg,20.10
sQTnREEtuNk,Zach Williams - Fear Is a Liar (Official Lyric Video),zachwilliamsVEVO,10,Essential Records|Fear Is a Liar (Official Lyric Video)|Gospel/Christian|Zach Williams,15601,715,32,72,https://i.ytimg.com/vi/sQTnREEtuNk/default.jpg,21.10
GT0L3RWQNjw,Nintendo Switch - Video Capture,Nintendo,20,nintendo|play|play nintendo|game|gameplay|fun|video game|kids|action|adventure|rpg|nintendo switch|joy con|pro controller|update|nintendo switch capture|nintendo switch video capture|video capture|nintendo switch video|album|archive|screenshot|trim|social media|zelda|legend of zelda|breath of the wild|legend of zelda breath of the wild|system update|version 4.0|gameplay capture|record|record gameplay|how to|how to series|nintendo switch how to,380029,20054,488,5136,https://i.ytimg.com/vi/GT0L3RWQNjw/default.jpg,21.10
vb_hwwmiKvQ,EXCLUSIVE: HTC U11 Plus Leaked 360 Degree Renders,Couponraja,26,htc|htc u 11 plus|htc u11 plus,67725,81,3,8,https://i.ytimg.com/vi/vb_hwwmiKvQ/default.jpg,21.10
Ef93WmlEho0,Why California's Musical Road Sounds Terrible,Tom Scott,27,tom scott|tomscott|amazing places|musical road|lancaster|lancaster ca|rossini|william tell overture,1966782,53141,1436,2801,https://i.ytimg.com/vi/Ef93WmlEho0/default.jpg,21.10
thUp8jTeJ9Q,I Bought A $500 'LUXURY' Mystery Box from Ebay- OMG WHY,grav3yardgirl,26,beauty|how to|makeup|howto|style|fashion|summer|spring|new|clothes|clothing|bunny|2017|vlogoween|vlogoween 2017|opening mystery ebay boxes|mystery ebay|ebay|mystery boxes|unboxing|luxury|ysl|dior|chanel|marc jacobs|la mer,1392410,38412,2453,6052,https://i.ytimg.com/vi/thUp8jTeJ9Q/default.jpg,21.10
QtVL76gh09U,$3 Ramen Vs. $79 Ramen • Japan,BuzzFeedVideo,22,ramen|worth it|japan|steven lim|adam bianchi|andrew illnyckj|buzzfeed|$$$|cheap vs. expensive|buzzfeed video|wig|noodles|soup|food|foodie|best|worst|cheap|expensive|taste|taste test|wi3|buzzfeedvideo|cheap vs expensive|buzzfeed worth it|buzzfeed andrew|buzzfeed steven|ben coleman|high vs low|cameraguy|experience|travel review|steven|buzzfeed adam|andrew ilnyckyj|travel|andrew|foodies|andrew ilnyckyi|$ vs $$$,7507261,169333,5801,15570,https://i.ytimg.com/vi/QtVL76gh09U/default.jpg,21.10
pnKcqi0Wvys,Ned Tries Famous Soccer Trick Shots • The Try Vlog,BuzzFeedVideo,22,Try Guys|vlog|Try Vlog|Ned|soccer|trick|trick shot|goal|sports|kick|fail|funny|Dude Perfect|buzzfeed|buzzfeedvideo|football|goals|soccer fails|fails|challenge|trick shots|football fails|skills|funny soccer|futebol|futbol|soccer video|soccer trick shot|epic fail,422939,11532,845,1568,https://i.ytimg.com/vi/pnKcqi0Wvys/default.jpg,22.10
sQTnREEtuNk,Zach Williams - Fear Is a Liar (Official Lyric Video),zachwilliamsVEVO,10,Essential Records|Fear Is a Liar (Official Lyric Video)|Gospel/Christian|Zach Williams,32259,927,39,86,https://i.ytimg.com/vi/sQTnREEtuNk/default.jpg,22.10
GT0L3RWQNjw,Nintendo Switch - Video Capture,Nintendo,20,nintendo|play|play nintendo|game|gameplay|fun|video game|kids|action|adventure|rpg|nintendo switch|joy con|pro controller|update|nintendo switch capture|nintendo switch video capture|video capture|nintendo switch video|album|archive|screenshot|trim|social media|zelda|legend of zelda|breath of the wild|legend of zelda breath of the wild|system update|version 4.0|gameplay capture|record|record gameplay|how to|how to series|nintendo switch how to,391380,20229,496,4361,https://i.ytimg.com/vi/GT0L3RWQNjw/default.jpg,22.10
vb_hwwmiKvQ,EXCLUSIVE: HTC U11 Plus Leaked 360 Degree Renders,Couponraja,26,htc|htc u 11 plus|htc u11 plus,75345,84,3,10,https://i.ytimg.com/vi/vb_hwwmiKvQ/default.jpg,22.10
Ef93WmlEho0,Why California's Musical Road Sounds Terrible,Tom Scott,27,tom scott|tomscott|amazing places|musical road|lancaster|lancaster ca|rossini|william tell overture,2061993,55193,1508,2774,https://i.ytimg.com/vi/Ef93WmlEho0/default.jpg,22.10
thUp8jTeJ9Q,I Bought A $500 'LUXURY' Mystery Box from Ebay- OMG WHY,grav3yardgirl,26,beauty|how to|makeup|howto|style|fashion|summer|spring|new|clothes|clothing|bunny|2017|vlogoween|vlogoween 2017|opening mystery ebay boxes|mystery ebay|ebay|mystery boxes|unboxing|luxury|ysl|dior|chanel|marc jacobs|la mer,1605305,41377,2889,6540,https://i.ytimg.com/vi/thUp8jTeJ9Q/default.jpg,22.10
